PlaceId,PlaceName,Municipalities,Zip
1,BZENICE,23,37238
2,BOBOTE,23,37230
3,BOTURIĆI,23,37227
4,BRATIĆI,23,37230
5,ALEKSANDROVAC,23,37230
6,VELIKA VRBNICA,23,37233
7,VELJA GLAVA,23,37230
8,VENČAC,23,37230
9,VITKOVO,23,37230
10,VRAŽOGRNCI,23,37235
11,VRANŠTICA,23,37238
12,VRBNICA,23,37230
13,GAREVINA,23,37234
14,GORNJA ZLEGINJA,23,37235
15,GORNJE RATAJE,23,37236
16,GORNJI VRATARI,23,37230
17,GORNJI STUPANJ,23,37234
18,GRČAK,23,37238
19,DAŠNICA,23,37234
20,DOBROLJUBCI,23,37239
21,DONJA ZLEGINJA,23,37235
22,DONJE RATAJE,23,37236
23,DONJI VRATARI,23,37230
24,DONJI STUPANJ,23,37234
25,DRENČA,23,37230
26,JELAKCI,23,37238
27,KOŽETIN,23,37230
28,KOZNICA,23,37238
29,LATKOVAC,23,37230
30,LAĆISLED,23,37234
31,LESENOVCI,23,37230
32,LESKOVICA,23,37230
33,LJUBINCI,23,37235
34,MRMOŠ,23,37233
35,NOVACI,23,37235
36,PANJEVAC,23,37239
37,PARČIN,23,37239
38,PLEŠ,23,37238
39,PLOČA,23,37238
40,POPOVCI,23,37230
41,PUHOVAC,23,37230
42,RAKLJA,23,37230
43,RŽANICA,23,37230
44,ROGAVČINA,23,37238
45,ROKCI,23,37238
46,RUDENICE,23,37230
47,STANJEVO,23,37230
48,STARCI,23,37230
49,STRMENICA,23,37238
50,STUBAL,23,37230
51,SUBOTICA,23,37235
52,TRŽAC,23,37230
53,TRNAVCI,23,37235
54,TULEŠ,23,37230
55,ŠLJIVOVO,23,37239
56,ALEKSINAC,24,18220
57,ALEKSINAČKI BUJMIR,24,18220
58,ALEKSINAČKI RUDNIK,24,18226
59,BANKOVAC,24,18212
60,BELI BREG,24,18223
61,BELJA,24,18210
62,BOBOVIŠTE,24,18224
63,BOVAN,24,18227
64,BRADARAC,24,18224
65,VAKUP,24,18220
66,VELIKI DRENOVAC,24,18212
67,VITKOVAC,24,18216
68,VRELO,24,18202
69,VRĆENOVICA,24,18221
70,VUKANJA,24,18214
71,VUKAŠINOVAC,24,18224
72,GLOGOVICA,24,18220
74,GORNJA PEŠČANICA,24,18213
75,GORNJE SUHOTNO,24,18210
76,GORNJI ADROVAC,24,18210
77,GORNJI KRUPAC,24,18223
78,GORNJI LJUBEŠ,24,18216
79,GREDETIN,24,18213
80,GREJAČ,24,18212
81,DAŠNICA,24,18212
82,DELIGRAD,24,18224
83,DOBRUJEVAC,24,18225
84,DONJA PEŠČANICA,24,18213
85,DONJE SUHOTNO,24,18210
86,DONJI ADROVAC,24,18210
87,DONJI KRUPAC,24,18223
88,DONJI LJUBEŠ,24,18216
89,DRAŽEVAC,24,18223
90,ŽITKOVAC,24,18210
91,JAKOVLJE,24,18213
92,JASENJE,24,18224
93,KAMENICA,24,18213
94,KATUN,24,18225
95,KOPRIVNICA,24,18212
96,KORMAN,24,18216
97,KRALJEVO,24,18220
98,KRUŠJE,24,18213
99,KULINA,24,18214
100,LIPOVAC,24,18225
101,LOZNAC,24,18213
102,LOĆIKA,24,18212
103,LUŽANE,24,18210
104,LJUPTEN,24,18214
105,MALI DRENOVAC,24,18212
106,MOZGOVO,24,18229
107,MORAVAC,24,18210
108,MORAVSKI BUJMIR,24,18210
109,NOZRINA,24,18210
110,PORODIN,24,18214
111,PREKONOZI,24,18223
112,PRĆILOVICA,24,18210
113,PRUGOVAC,24,18225
114,RADEVCE,24,18213
115,RSOVAC,24,18223
116,RUTEVAC,24,18224
117,SREZOVAC,24,18216
118,STANCI,24,18225
119,STUBLINA,24,18210
120,SUBOTINAC,24,18227
121,TEŠICA,24,18212
122,TRNJANE,24,18213
123,ĆIĆINA,24,18224
124,CRNA BARA,24,18225
125,ČESTA,24,18221
126,ČUKUROVAC,24,18221
127,ŠURIĆ,24,18221
128,ARANĐELOVAC,200,34300
129,BANJA,200,34304
130,BOSUTA,200,34309
131,BREZOVAC,200,34304
132,BUKOVIK,200,34301
133,VENČANE,200,34306
134,VRBICA,200,34300
135,VUKOSAVCI,200,34309
136,GARAŠI,200,34309
137,GORNJA TREŠNJEVICA,200,34314
138,JELOVIK,200,34309
139,KOPLJARE,200,34308
140,MISAČA,200,34302
141,ORAŠAC,200,34308
142,PARTIZANI,200,34305
143,PROGOREOCI,200,34305
144,RANILOVIĆ,200,34302
145,STOJNIK,200,34307
146,TULEŽ,200,34306
147,ARILJE,25,31230
148,BJELUŠA,25,31234
149,BOGOJEVIĆI,25,31230
150,BREKOVO,25,31234
151,VIGOŠTE,25,31230
152,VIROVO,25,31230
153,VISOKA,25,31230
154,VRANE,25,31230
155,GRDOVIĆI,25,31230
156,GRIVSKA,25,31230
157,DOBRAČE,25,31234
158,DRAGOJEVAC,25,31230
159,KRUŠČICA,25,31230
160,LATVICA,25,31230
161,MIROSALJCI,25,31236
162,POGLED,25,31230
163,RADOBUĐA,25,31230
164,RADOŠEVO,25,31230
165,SEVEROVO,25,31230
166,STUPČEVIĆI,25,31236
167,TREŠNJEVICA,25,31236
168,CEROVA,25,31230
169,ALEKSANDROVAC,26,18330
170,BABUŠNICA,26,18330
171,BERDUJ,26,18217
172,BERIN IZVOR,26,18333
173,BOGDANOVAC,26,18217
174,BRATIŠEVAC,26,18330
175,BRESTOV DOL,26,18217
176,VAVA,26,18330
177,VALNIŠ,26,18332
178,VELIKO BONJINCE,26,18215
179,VOJNICI,26,18330
180,VRELO,26,18217
181,VUČI DEL,26,18333
182,GORNJE KRNJINO,26,18330
183,GORNJI STRIŽEVAC,26,18330
184,GORČINCI,26,18330
185,GRNČAR,26,18217
186,DOL,26,18217
187,DONJE KRNJINO,26,18330
188,DONJI STRIŽEVAC,26,18330
189,DRAGINAC,26,18330
190,DUČEVAC,26,18330
191,ZAVIDINCE,26,18215
192,ZVONCE,26,18333
193,IZVOR,26,18330
194,JASENOV DEL,26,18333
195,KALUĐEROVO,26,18330
196,KAMBELEVCI,26,18330
197,KIJEVAC,26,18330
198,LESKOVICA,26,18217
199,LINOVO,26,18217
200,LJUBERAĐA,26,18217
201,MALO BONJINCE,26,18215
202,MASUROVCI,26,18332
203,MEZGRAJA,26,18215
204,MODRA STENA,26,18215
205,NAŠUŠKOVICA,26,18333
206,OSTATOVICA,26,18215
207,PRESEKA,26,18333
208,PROVALJENIK,26,18330
209,RADINJINCI,26,18217
210,RADOSINJ,26,18332
211,RADOŠEVAC,26,18330
212,RAKITA,26,18333
213,RAKOV DOL,26,18332
214,RALJIN,26,18332
215,RESNIK,26,18330
216,STOL,26,18330
217,STRELAC,26,18332
218,STUDENA,26,18332
219,SURAČEVO,26,18330
220,CRVENA JABUKA,26,18332
221,ŠTRBOVAC,26,18217
222,BAJINA BAŠTA,27,31250
223,BAČEVCI,27,31258
224,BESEROVINA,27,31256
225,VIŠESAVA,27,31250
226,GVOZDAC,27,31255
227,DOBROTIN,27,31254
228,DRAKSIN,27,31254
229,DUB,27,31253
230,ZAGLAVAK,27,31253
231,ZAOVINE,27,31251
232,ZAROŽJE,27,31255
233,ZAUGLINE,27,31256
234,ZLODOL,27,31253
235,JAGOŠTICA,27,31256
236,JAKALJ,27,31263
237,JELOVIK,27,31254
238,KONJSKA REKA,27,31251
239,KOSTOJEVIĆI,27,31254
240,LUG,27,31250
241,LJEŠTANSKO,27,31255
242,MALA REKA,27,31250
243,OBAJGORA,27,31250
244,OVČINJA,27,31255
245,OKLETAC,27,31255
246,PEPELJ,27,31250
247,PERUĆAC,27,31251
248,PILICA,27,31250
249,PRIDOLI,27,31250
250,RASTIŠTE,27,31256
251,RAČA,27,31250
252,ROGAČICA,27,31255
253,SIJERAČ,27,31255
254,SOLOTUŠA,27,31241
255,STRMOVO,27,31258
256,CERJE,27,31254
257,CRVICA,27,31250
258,BADNJEVAC,28,34226
259,BATOČINA,28,34227
260,BRZAN,28,34228
261,GRADAC,28,34227
262,DOBROVODICA,28,34227
263,ŽIROVNICA,28,34229
264,KIJEVO,28,34227
265,LAPOVO (VAROŠICA),105,34220
266,LAPOVO (SELO),105,34220
267,MILATOVAC,28,34222
268,NIKŠIĆ,28,34222
269,PRNJAVOR,28,34222
270,CRNI KAO,28,34227
271,BABIN KAL,29,18310
272,BEŽIŠTE,29,18310
273,BELA PALANKA,29,18310
274,BUKUROVAC,29,18310
275,VETA,29,18313
276,VITANOVAC,29,18310
277,VRANDOL,29,18313
278,VRGUDINAC,29,18310
279,GLOGOVAC,29,18313
280,GORNJA GLAMA,29,18310
281,GORNJA KORITNICA,29,18310
282,GORNJI RINJ,29,18310
283,GRADIŠTE,29,18314
284,DIVLJANA,29,18310
285,DOLAC (NASELJE),29,18314
286,DOLAC (SELO),29,18314
287,DONJA GLAMA,29,18310
288,DONJA KORITNICA,29,18310
289,DONJI RINJ,29,18310
290,DRAŽEVO,29,18310
291,KLENJE,29,18310
292,KLISURA,29,18310
293,KOZJA,29,18310
294,KOSMOVAC,29,18313
295,KREMENICA,29,18310
296,KRUPAC,29,18314
297,LANIŠTE,29,18314
298,LESKOVIK,29,18314
299,LJUBATOVICA,29,18310
300,MIRANOVAC,29,18310
301,MIRANOVAČKA KULA,29,18310
302,MOKLIŠTE,29,18310
303,MOKRA,29,18310
304,NOVO SELO,29,18310
305,OREOVAC,29,18310
306,PAJEŽ,29,18310
307,SINJAC,29,18310
308,TAMNJANICA,29,18314
309,TELOVAC,29,18310
310,TOPONICA,29,18313
311,CRVENA REKA,29,18313
312,CRVENI BREG,29,18313
313,CRNČE,29,18314
314,ČIFLIK,29,18310
315,ŠLJIVOVIK,29,18310
316,ŠPAJ,29,18313
317,ARNAJEVO,30,11461
318,BARAJEVO,30,11426
319,BAĆEVAC,30,11426
320,BELJINA,30,11461
321,BOŽDAREVAC,30,11460
322,VELIKI BORAK,30,11462
323,VRANIĆ,30,11427
324,GUNCATI,30,11426
325,LISOVIĆ,30,11460
326,MANIĆ,30,11461
327,MELJAK,30,11426
328,ROŽANCI,30,11461
329,ŠILJAKOVAC,30,11462
330,BELI POTOK,201,11223
331,ZUCE,201,11225
332,PINOSAVA,201,11223
333,RIPANJ,201,11232
334,BEGALJICA,32,11308
335,BOLEČ,32,11307
336,BRESTOVIK,32,11306
337,VINČA,32,11309
338,VRČIN,32,11224
339,GROCKA,32,11306
340,DRAŽANJ,32,11430
341,ŽIVKOVAC,32,11430
342,ZAKLOPAČA,32,11306
343,KALUĐERICA,32,11130
344,KAMENDOL,32,11430
345,LEŠTANE,32,11309
346,PUDARCI,32,11430
347,RITOPEK,32,11307
348,UMČARI,32,11430
349,BEČMEN,225,11279
350,BOLJEVCI,225,11275
351,DOBANOVCI,225,11271
352,JAKOVO,225,11271
353,PETROVČIĆ,225,11279
354,PROGAR,225,11275
355,SURČIN,225,11271
356,UGRINOVCI,34,11272
357,ARAPOVAC,35,11562
358,BARZILOVICA,35,11561
359,BAROŠEVAC,35,11565
360,BISTRICA,35,11550
361,BRAJKOVAC,35,11561
362,BUROVO,35,11550
363,VELIKI CRLJENI,35,11563
364,VRBOVNO,35,11564
365,VREOCI,35,11560
366,DREN,35,11550
367,DUDOVICA,35,11561
368,ŽUPANJAC,35,11561
369,ZEOKE,35,11565
370,JUNKOVAC,35,11562
371,KRUŠEVICA,35,11566
372,LAZAREVAC,35,11550
373,LESKOVAC,35,11564
374,LUKAVICA,35,11550
375,MALI CRLJENI,35,11566
376,MEDOŠEVAC,35,11560
377,MIROSALJCI,35,11567
378,PETKA,35,11550
379,PRKOSAVA,35,11566
380,RUDOVCI,35,11566
382,SOKOLOVO,35,11563
383,STEPOJEVAC,35,11564
384,STRMOVO,35,11565
385,STUBICA,35,11550
386,TRBUŠNICA,35,11566
387,CVETOVAC,35,11563
388,ČIBUTKOVICA,35,11561
389,ŠOPIĆ,35,11550
390,ŠUŠNJAR,35,11550
391,AMERIĆ,36,11406
392,BELUĆE,36,11408
393,BELJEVAC,36,11412
394,VELIKA IVANČA,36,11414
395,VELIKA KRSNA,36,11408
396,VLAŠKA,36,11406
397,GRANICE,36,11400
398,DUBONA,36,11433
399,JAGNJILO,36,11412
400,KOVAČEVAC,36,11409
401,KORAĆICA,36,11400
402,MALA VRBICA,36,11400
403,MARKOVAC,36,11412
404,MEĐULUŽJE,36,11400
405,MLADENOVAC (VAROŠ),36,11400
406,MLADENOVAC (SELO),36,11400
407,PRUŽATOVAC,36,11413
408,RABROVAC,36,11412
409,RAJKOVAC,36,11400
410,SENAJA,36,11433
411,CRKVINE,36,11412
412,ŠEPŠIN,36,11433
413,BALJEVAC,202,11506
414,BARIČ,202,11504
415,BELO POLJE,202,11500
416,BRGULICE,202,11509
417,BROVIĆ,202,11507
418,VELIKO POLJE,202,11500
419,VUKIĆEVICA,202,11508
420,GRABOVAC,202,11508
421,DRAŽEVAC,202,11506
422,DREN,202,11508
423,ZABREŽJE,202,11500
424,ZVEČKA,202,11500
425,JASENAK,202,11506
426,KONATICE,202,11506
427,KRTINSKA,202,11500
428,LJUBINIĆ,202,11508
429,MALA MOŠTANICA,202,11261
430,MISLOĐIN,202,11500
431,OBRENOVAC,202,11500
432,ORAŠAC,202,11508
433,PIROMAN,202,11507
434,POLJANE,202,11506
435,RATARI,202,11509
436,RVATI,202,11500
437,SKELA,202,11509
438,STUBLINE,202,11507
439,TRSTENICA,202,11507
440,UROVCI,202,11500
441,UŠĆE,202,11509
442,BORČA,38,11210
443,VELIKO SELO,38,11215
444,DUNAVAC,38,11213
445,KOVILOVO,38,11213
446,OVČA,38,11211
447,PADINSKA SKELA,38,11210
448,SLANCI,38,11060
449,BABE,41,11233
450,GUBEREVAC,41,11460
451,DRLUPA,41,11453
452,DUČINA,41,11453
453,ĐURINCI,41,11450
454,MALA IVANČA,41,11233
455,MALI POŽAREVAC,41,11235
456,NEMENIKUĆE,41,11450
457,PARCANI,41,11233
458,POPOVIĆ,41,11233
459,RALJA,41,11233
460,ROGAČA,41,11453
461,ROPOČEVO,41,11450
462,SIBNICA,41,11453
463,SLATINA,41,11453
464,SOPOT,41,11450
465,STOJNIK,41,11233
466,VELIKA MOŠTANICA,43,11253
467,OSTRUŽNICA,43,11251
468,PEĆANI,43,11260
469,RUCKA,43,11260
470,RUŠANJ,43,11194
471,SREMČICA,43,11253
472,UMKA,43,11260
473,ALABANA,44,18425
474,BARBATOVAC,44,18426
475,BLACE,44,18420
476,BREŽANI,44,18420
477,VIŠE SELO,44,18426
478,VRBOVAC,44,18420
479,GORNJA DRAGUŠA,44,18425
480,GORNJA JOŠANICA,44,18420
481,GORNJE GRGURE,44,18426
482,GORNJE SVARČE,44,18425
483,DONJA DRAGUŠA,44,18425
484,DONJA JOŠANICA,44,18425
485,DONJA RAŠICA,44,18420
486,DONJE GRGURE,44,18426
487,DONJE SVARČE,44,18425
488,DREŠNICA,44,18426
489,ĐUREVAC,44,18420
490,KAČAPOR,44,18420
491,KAŠEVAR,44,18420
492,KRIVAJA,44,18425
493,KUTLOVAC,44,18426
494,LAZAREVAC,44,18425
495,MALA DRAGUŠA,44,18425
496,MEĐUHANA,44,18420
497,MUZAĆE,44,18426
498,POPOVA,44,18420
499,PREBREZA,44,18420
500,PRETEŽANA,44,18425
501,PRETREŠNJA,44,18420
502,PRIDVORICA,44,18420
503,RAŠICA,44,18420
504,SIBNICA,44,18420
505,STUBAL,44,18420
506,SUVAJA,44,18425
507,SUVI DO,44,18420
508,TRBUNJE,44,18420
509,ČUNGULA,44,18426
510,ČUČALE,44,18420
511,DŽEPNICA,44,18420
512,ŠILJOMANA,44,18420
513,BADOVINCI,45,15358
514,BANOVO POLJE,45,15362
515,BELOTIĆ,45,15350
516,BOGATIĆ,45,15350
517,GLOGOVAC,45,15355
518,GLUŠCI,45,15356
519,DUBLJE,45,15359
520,KLENJE,45,15357
521,METKOVIĆ,45,15356
522,OČAGE,45,15357
523,SALAŠ CRNOBARSKI,45,15358
524,SOVLJAK,45,15355
525,UZVEĆE,45,15356
526,CRNA BARA,45,15355
527,BOJNIK,203,16205
528,BORINCE,203,16233
529,GORNJI BRESTOVAC,203,16205
530,VUJANOVO,203,16233
531,GORNJE BRIJANJE,203,16206
532,GORNJE KONJUVCE,203,16205
533,GRANICA,203,16205
534,DOBRA VODA,203,16205
535,DONJE KONJUVCE,203,16205
536,DRAGOVAC,203,16205
537,DUBRAVA,203,16205
538,ĐINĐUŠA,203,16205
539,ZELETOVO,203,16205
540,ZOROVAC,203,16205
541,IVANJE,203,16233
542,KAMENICA,203,16205
543,KACABAĆ,203,16206
544,KOSANČIĆ,203,16206
545,LAPOTINCE,203,16205
546,LOZANE,203,16233
547,MAGAŠ,203,16205
548,MAJKOVAC,203,16233
549,MIJAJLICA,203,16233
550,MRVEŠ,203,16205
551,OBILIĆ,203,16206
552,OBRAŽDA,203,16233
553,ORANE,203,16233
554,PLAVCE,203,16205
555,PRIDVORICA,203,16205
556,REČICA,203,16205
557,SAVINAC,203,16205
558,SLAVNIK,203,16205
559,STUBLA,203,16206
560,TURJANE,203,16233
561,ĆUKOVAC,203,16206
562,CRKVICE,203,16205
563,BAČEVICA,46,19370
564,BOGOVINA,46,19372
565,BOLJEVAC,46,19370
566,BOLJEVAC SELO,46,19370
567,VALAKONJE,46,19370
568,VRBOVAC,46,19370
569,DOBRO POLJE,46,19370
570,DOBRUJEVAC,46,19370
571,ILINO,46,19370
572,JABLANICA,46,19371
573,KRIVI VIR,46,19375
574,LUKOVO,46,19371
575,MALI IZVOR,46,19370
576,MIROVO,46,19370
577,OSNIĆ,46,19370
578,PODGORAC,46,19233
579,RTANJ,46,19370
580,RUJIŠTE,46,19370
581,SAVINAC,46,19377
582,SUMRAKOVAC,46,19376
583,BOR,47,19210
584,BRESTOVAC,47,19216
585,BUČJE,47,19226
586,GORNJANE,47,19219
587,DONJA BELA REKA,47,19213
588,ZLOT,47,19215
589,KRIVELJ,47,19219
590,LUKA,47,19213
591,METOVNICA,47,19204
592,OŠTRELJ,47,19226
593,SLATINA,47,19221
594,TANDA,47,19213
596,ŠARBANOVAC,47,19373
597,BARJE,48,17544
598,BELUT,48,17540
599,BISTAR,48,17546
600,BOSILEGRAD,48,17540
601,BRANKOVCI,48,17546
602,BRESNICA,48,17540
603,BUCELJEVO,48,17540
604,GLOŽJE,48,17540
605,GOLEŠ,48,17546
606,GORNJA LISINA,48,17538
607,GORNJA LJUBATA,48,17544
608,GORNJA RŽANA,48,17538
609,GORNJE TLAMINO,48,17546
610,GRUJINCI,48,17540
611,DOGANICA,48,17546
612,DONJA LISINA,48,17538
613,DONJA LJUBATA,48,17544
614,DONJA RŽANA,48,17538
615,DONJE TLAMINO,48,17546
616,DUKAT,48,17544
617,ŽERAVINO,48,17546
618,ZLI DOL,48,17540
619,IZVOR,48,17540
620,JAREŠNIK,48,17546
621,KARAMANICA,48,17546
622,MILEVCI,48,17540
623,MLEKOMINCI,48,17540
624,MUSULJ,48,17544
625,NAZARICA,48,17546
626,PARALOVO,48,17540
627,PLOČA,48,17544
628,RADIČEVCI,48,17540
629,RAJČILOVCI,48,17540
630,RESEN,48,17540
631,RIBARCI,48,17540
632,RIKAČEVO,48,17546
633,CRNOŠTICA,48,17540
634,BATOTE,49,37224
635,BELO POLJE,49,37226
636,BLAŽEVO,49,37226
637,BOGIŠE,49,37228
638,BOZOLJIN,49,37226
639,BORANCI,49,37226
640,BOTUNJA,49,37220
641,BRĐANI,49,37224
642,BRZEĆE,49,37225
643,BRUS,49,37220
644,BUDILOVINA,49,37227
645,VELIKA GRABOVNICA,49,37220
646,VITOŠE,49,37226
647,VLAJKOVCI,49,37220
648,GORNJE LEVIĆE,49,37225
649,GORNJI LIPOVAC,49,37220
650,GRAD,49,37227
651,GRADAC,49,37226
652,GRAŠEVCI,49,37220
653,DOMIŠEVINA,49,37226
654,DONJE LEVIĆE,49,37226
655,DONJI LIPOVAC,49,37224
656,DRENOVA,49,37220
657,DRTEVCI,49,37220
658,DUPCI,49,37223
659,ĐEREKARI,49,37225
660,ŽAREVO,49,37224
661,ŽILINCI,49,37228
662,ŽILJCI,49,37220
663,ŽUNJE,49,37223
664,ZLATARI,49,37228
665,IGROŠ,49,37224
666,IRIČIĆI,49,37226
667,KNEŽEVO,49,37225
668,KOBILJE,49,37220
669,KOVIZLA,49,37226
670,KOVIOCI,49,37228
671,KOČINE,49,37220
672,KRIVA REKA,49,37227
673,LEPENAC,49,37224
674,LIVAĐE,49,37225
675,MALA VRBNICA,49,37220
676,MALA GRABOVNICA,49,37220
677,MILENTIJA,49,37227
678,OSREDCI,49,37227
679,PALJEVŠTICA,49,37225
680,RAVNI,49,37228
681,RAVNIŠTE,49,37225
682,RADMANOVO,49,37225
683,RADUNJE,49,37226
684,RAZBOJNA,49,37223
685,RIBARI,49,37227
686,STANULOVIĆI,49,37226
687,STROJINCI,49,37228
688,SUDIMLJA,49,37226
689,TRŠANOVCI,49,37220
690,ČOKOTAR,49,37226
691,ŠOŠIĆE,49,37220
692,BARALJEVAC,50,17524
693,BILJAČA,50,17522
694,BOGDANOVAC,50,17520
695,BOŽINJEVAC,50,17520
696,BOROVAC,50,17520
697,BRATOSELCE,50,17522
698,BREZNICA,50,17529
699,BRNJARE,50,17524
700,BUJANOVAC,50,17520
701,BUŠTRANJE,50,17521
702,VELIKI TRNOVAC,50,17528
703,VOGANCE,50,17524
704,VRBAN,50,17520
705,GORNJE NOVO SELO,50,17529
706,GRAMADA,50,17520
707,DOBROSIN,50,17520
708,DONJE NOVO SELO,50,17522
709,DREŽNICA,50,17524
710,ĐORĐEVAC,50,17529
711,ŽBEVAC,50,17521
712,ŽUŽELJICA,50,17520
713,ZARBINCE,50,17529
714,JABLANICA,50,17524
715,JASTREBAC,50,17521
716,KARADNIK,50,17520
717,KLENIKE,50,17524
718,KLINOVAC,50,17521
719,KONČULJ,50,17528
720,KOŠARNO,50,17520
721,KRŠEVICA,50,17521
722,KUŠTICA,50,17524
723,LEVOSOJE,50,17520
724,LETOVICA,50,17520
725,LOPARDINCE,50,17520
726,LUKARCE,50,17524
727,LUČANE,50,17520
728,LJILJANCE,50,17520
729,MALI TRNOVAC,50,17528
730,MUHOVAC,50,17529
731,NEGOVAC,50,17522
732,NESALCE,50,17520
733,OSLARE,50,17520
734,SVETA PETKA,50,17524
735,PRETINA,50,17524
736,PRIBOVCE,50,17529
737,RAVNO BUČJE,50,17529
738,RAKOVAC,50,17520
739,RUSCE,50,17524
740,SAMOLJICA,50,17522
741,SEBRAT,50,17524
742,SEJACE,50,17524
743,SPANČEVAC,50,17524
744,SRPSKA KUĆA,50,17520
745,STARAC,50,17524
746,SUHARNO,50,17529
747,TREJAK,50,17524
748,TURIJA,50,17528
749,UZOVO,50,17524
750,ČAR,50,17529
751,BABINA LUKA,204,14201
752,BALINOVIĆ,204,14206
753,BAČEVCI,204,14203
754,BELIĆ,204,14203
755,BELOŠEVAC,204,14104
756,BEOMUŽEVIĆ,204,14255
757,BLIZONJE,204,14201
758,BOBOVA,204,14255
759,BOGATIĆ,204,14205
760,BRANGOVIĆ,204,14203
761,BRANKOVINA,204,14201
762,BREZOVICE,204,14206
763,BUJAČIĆ,204,14104
764,VALJEVO,204,14000
765,VESELINOVAC,204,14222
766,VLAŠČIĆ,204,14252
767,VRAGOČANICA,204,14255
768,VUJINOVAČA,204,14206
769,GOLA GLAVA,204,14201
770,GORIĆ,204,14106
771,GORNJA BUKOVICA,204,14252
772,GORNJA GRABOVICA,204,14000
773,GORNJE LESKOVICE,204,14205
774,DEGURIĆ,204,14104
775,DIVCI,204,14222
776,DIVČIBARE,204,14204
777,DONJA BUKOVICA,204,14255
778,DONJE LESKOVICE,204,14205
779,DRAČIĆ,204,14203
780,DUPLJAJ,204,14222
781,ŽABARI,204,14203
782,ZABRDICA,204,14201
783,ZARUBE,204,14203
784,ZLATARIĆ,204,14255
785,JAZOVIK,204,14201
786,JASENICA,204,14000
787,JOVANJA,204,14000
788,JOŠEVA,204,14201
789,KAMENICA,204,14252
790,KLANICA,204,14222
791,KLINCI,204,14104
792,KOVAČICE,204,14203
793,KOZLIČIĆ,204,14201
794,KOTEŠICA,204,14201
795,KUNICE,204,14206
796,LELIĆ,204,14205
797,LOZNICA,204,14222
798,LUKAVAC,204,14222
799,MAJINOVIĆ,204,14255
800,MIJAČI,204,14206
801,MILIČINICA,204,14252
802,MRČIĆ,204,14222
803,OGLAĐENOVAC,204,14252
804,OSLADIĆ,204,14252
805,PAKLJE,204,14206
806,PAUNE,204,14202
807,PETNICA,204,14104
808,POPUČKE,204,14221
809,PRIJEZDIĆ,204,14203
810,PRIČEVIĆ,204,14255
811,RABAS,204,14201
812,RAVNJE,204,14203
813,RAĐEVO SELO,204,14000
814,REBELJ,204,14206
815,ROVNI,204,14206
816,SANDALJ,204,14205
817,SEDLARI,204,14000
818,SITARICE,204,14255
819,SOVAČ,204,14206
820,STANINA REKA,204,14255
821,STAPAR,204,14252
822,STRMNA GORA,204,14205
823,STUBO,204,14206
824,SUVODANJE,204,14255
825,SUŠICA,204,14205
826,DONJI TAOR,204,14205
827,TUBRAVIĆ,204,14206
828,TUPANCI,204,14255
829,BAČINA,51,37265
830,BOŠNJANE,51,37262
831,VARVARIN,51,37260
832,VARVARIN (SELO),51,37260
833,GORNJI KATUN,51,37260
834,GORNJI KRČIN,51,37258
835,DONJI KATUN,51,37260
836,DONJI KRČIN,51,37258
837,ZALOGOVAC,51,37257
838,IZBENICA,51,37265
839,KARANOVAC,51,37258
840,MALA KRUŠEVICA,51,37258
841,MARENOVO,51,37257
842,MASKARE,51,37262
843,OBREŽ,51,37266
844,ORAŠJE,51,37265
845,PAJKOVAC,51,37258
846,PARCANE,51,37257
847,SUVAJA,51,37265
848,TOLJEVAC,51,37258
849,CERNICA,51,37265
850,VELIKA PLANA,52,11320
851,VELIKO ORAŠJE,52,11323
852,DONJA LIVADICA,52,11326
853,KRNJEVO,52,11319
854,KUPUSINA,52,11320
855,LOZOVIK,52,11317
856,MARKOVAC,52,11325
857,MILOŠEVAC,52,11318
858,NOVO SELO,52,11324
859,RADOVANJE,52,11320
860,RAKINAC,52,11325
861,STARO SELO,52,11320
862,TRNOVČE,52,11318
863,BISKUPLJE,53,12226
864,VELIKO GRADIŠTE,53,12220
865,GAREVO,53,12253
866,DESINE,53,12253
867,DOLJAŠNICA,53,12253
868,ĐURAKOVO,53,12221
869,ZATONJE,53,12226
870,KAMIJEVO,53,12253
871,KISILJEVO,53,12220
872,KUMANE,53,12226
873,KURJAČE,53,12221
874,KUSIĆE,53,12222
875,LJUBINJE,53,12253
876,MAJILOVAC,53,12221
877,MAKCE,53,12254
878,OSTROVO,53,12220
879,PEČANICA,53,12253
880,POŽEŽENO,53,12220
881,POPOVAC,53,12221
882,RAM,53,12209
883,SIRAKOVO,53,12221
884,SREDNJEVO,53,12253
885,TOPOLOVNIK,53,12226
886,TRIBRODE,53,12222
887,CAREVAC,53,12253
888,ČEŠLJEVA BARA,53,12253
889,BELOTIĆ,54,15226
890,BELJIN,54,15214
891,BOBOVIK,54,15225
892,VLADIMIRCI,54,15225
893,VLASENICA,54,15214
894,VUKOŠIĆ,54,15224
895,VUČEVICA,54,15224
896,DEBRC,54,15214
897,DRAGOJEVAC,54,15213
898,ZVEZD,54,15215
899,JAZOVNIK,54,15214
900,JALOVIK,54,15214
901,KAONA,54,15226
902,KOZARICA,54,15226
903,KRNIĆ,54,15214
904,KRNULE,54,15225
905,KUJAVICA,54,15213
906,LOJANICE,54,15225
907,MATIJEVAC,54,15225
908,MESARCI,54,15214
909,MEHOVINE,54,15225
910,MROVSKA,54,15226
911,NOVO SELO,54,15214
912,PEJINOVIĆ,54,15225
913,PROVO,54,15215
914,RIĐAKE,54,15224
915,SKUPLJEN,54,15225
916,SUVO SELO,54,15214
917,TRBUŠAC,54,15213
918,BALINOVCE,55,17510
919,BAČVIŠTE,55,17512
920,BELANOVCE,55,17512
921,BELIŠEVO,55,17512
922,BOGOŠEVO,55,17512
923,BRESTOVO,55,17510
924,VLADIČIN HAN,55,17510
925,VRBOVO,55,17512
926,GARINJE,55,17514
927,GORNJE JABUKOVO,55,17510
928,GRAMAĐE,55,17512
929,DEKUTINCE,55,17512
930,DONJE JABUKOVO,55,17510
931,DUPLJANE,55,17514
932,ŽITORAĐE,55,17510
933,ZEBINCE,55,17510
934,JAGNJILO,55,17510
935,JASTREBAC,55,17510
936,JOVAC,55,17512
937,KALIMANCE,55,17510
938,KACAPUN,55,17512
939,KOZNICA,55,17514
940,KOPITARCE,55,17514
941,KOSTOMLATICA,55,17510
942,KRŽINCE,55,17510
943,KUKAVICA,55,17510
944,KUNOVO,55,17510
945,LEBET,55,17514
946,LEPENICA,55,17512
947,LETOVIŠTE,55,17510
948,LJUTEŽ,55,17514
949,MAZARAĆ,55,17512
950,MANAJLE,55,17514
951,MANJAK,55,17514
952,MRTVICA,55,17514
953,OSTROVICA,55,17512
954,POLOM,55,17510
955,PREKODOLCE,55,17510
956,PRIBOJ,55,17512
957,RAVNA REKA,55,17512
958,RDOVO,55,17510
959,REPINCE,55,17510
960,REPIŠTE,55,17514
961,RUŽIĆ,55,17514
962,SOLAČKA SENA,55,17510
964,STUBAL,55,17512
965,SUVA MORAVA,55,17510
966,TEGOVIŠTE,55,17514
967,URVIČ,55,17510
968,DŽEP,55,17514
969,ALEKSINE,205,16212
970,BATULOVCE,205,16210
971,BOLJARE,205,16210
972,BORIN DO,205,16212
973,BREZOVICA,205,16210
974,VLASOTINCE,205,16210
975,GLOŽANE,205,16210
976,GORNJA LOMNICA,205,16210
977,GORNJA LOPUŠNJA,205,16210
978,GORNJI DEJAN,205,16212
979,GORNJI ORAH,205,16212
980,GORNJI PRISJAN,205,16212
981,GRADIŠTE,205,16210
982,GUNJETINA,205,16210
983,DADINCE,205,16210
984,DOBROVIŠ,205,16212
985,DONJA LOMNICA,205,16210
986,DONJA LOPUŠNJA,205,16210
987,DONJE GARE,205,16212
988,DONJI DEJAN,205,16212
989,DONJI PRISJAN,205,16212
990,ZLATIĆEVO,205,16212
991,JAVORJE,205,16212
992,JAKOVLJEVO,205,16212
993,JASTREBAC,205,16210
995,KOMARICA,205,16210
996,KONOPNICA,205,16210
997,KRUŠEVICA,205,16210
998,KUKAVICA,205,16210
999,LADOVICA,205,16210
1000,LIPOVICA,205,16210
1001,ORAŠJE,205,16210
1003,PRŽOJNE,205,16212
1004,PRILEPAC,205,16210
1005,RAVNA GORA,205,16210
1006,RAVNI DEL,205,16210
1007,SAMARNICA,205,16210
1008,SVOĐE,205,16212
1009,SKRAPEŽ,205,16210
1010,SREDOR,205,16210
1011,STAJKOVCE,205,16210
1012,STRANJEVO,205,16212
1013,TEGOŠNICA,205,16212
1014,CRNA BARA,205,16210
1015,CRNATOVO,205,16210
1016,ŠIŠAVA,205,16210
1017,ALEKSANDROVAC,56,17521
1019,BARBARUŠINCE,56,17508
1020,BARELIĆ,56,17508
1021,BELI BREG,56,17501
1022,BOJIN DEL,56,17501
1023,BRESNICA,56,17501
1024,BUJKOVAC,56,17542
1027,VIŠEVCE,56,17508
1028,VLASE,56,17507
1029,VRANJE,56,17501
1030,VRANJSKA BANJA,56,17542
1031,VRTOGOŠ,56,17521
1032,GOLEMO SELO,56,17507
1033,GORNJA OTULJA,56,17501
1034,GORNJE ŽAPSKO,56,17521
1035,GORNJE PUNOŠEVCE,56,17508
1036,GORNJE TREBEŠINJE,56,17501
1037,GORNJI NERADOVAC,56,17501
1038,GRADNJA,56,17507
1039,GUMERIŠTE,56,17501
1040,DAVIDOVAC,56,17521
1041,DOBREJANCE,56,17507
1042,DONJA OTULJA,56,17501
1043,DONJE ŽAPSKO,56,17521
1044,DONJE PUNOŠEVCE,56,17508
1045,DONJE TREBEŠINJE,56,17501
1046,DONJI NERADOVAC,56,17501
1047,DRAGOBUŽDE,56,17507
1048,DRENOVAC,56,17507
1049,DUBNICA,56,17501
1050,DUGA LUKA,56,17542
1051,DULAN,56,17501
1052,DUPELJEVO,56,17507
1053,ZLATOKOP,56,17501
1054,IZUMNO,56,17542
1055,KATUN,56,17501
1056,KLAŠNJICE,56,17501
1057,KLISURICA,56,17545
1058,KOPANJANE,56,17508
1059,KORBEVAC,56,17545
1060,KORBUL,56,17542
1061,KOĆURA,56,17508
1062,KRIVA FEJA,56,17543
1063,KRUŠEVA GLAVA,56,17507
1064,KUMAREVO,56,17542
1065,KUPININCE,56,17501
1066,LALINCE,56,17507
1067,LEVA REKA,56,17542
1068,LEPČINCE,56,17508
1069,LIPOVAC,56,17542
1070,LUKOVO,56,17501
1072,MEČKOVAC,56,17501
1073,MIJAKOVCE,56,17507
1074,MIJOVCE,56,17507
1075,MILANOVO,56,17521
1076,MILIVOJCE,56,17501
1077,MOŠTANICA,56,17501
1078,NASTAVCE,56,17501
1079,NESVRTA,56,17543
1080,NOVA BREZOVICA,56,17508
1081,OBLIČKA SENA,56,17501
1082,OSTRA GLAVA,56,17507
1083,PAVLOVAC,56,17521
1084,PANEVLJE,56,17545
1085,PLJAČKOVICA,56,NULL
1086,PRVONEK,56,17542
1087,PREVALAC,56,17545
1088,PREOBRAŽENJE,56,17501
1089,RANUTOVAC,56,17501
1090,RATAJE,56,17521
1091,RIBNICE,56,17501
1092,RISTOVAC,56,17521
1093,ROŽDACE,56,17507
1095,SEBEVRANJE,56,17545
1096,SIKIRJE,56,17507
1097,SLIVNICA,56,17542
1098,SMILJEVIĆ,56,17507
1099,SODERCE,56,17501
1100,SREDNJI DEL,56,17508
1101,STANCE,56,17507
1102,STARA BREZOVICA,56,17508
1103,STARI GLOG,56,17542
1104,STREŠAK,56,17507
1105,STROPSKO,56,17501
1106,STRUGANICA,56,17501
1107,STUDENA,56,17507
1108,SUVI DOL,56,17501
1109,SURDUL,56,17508
1110,TESOVIŠTE,56,17501
1111,TIBUŽDE,56,17501
1112,TOPLAC,56,17501
1113,TRSTENA,56,17507
1114,TUMBA,56,17507
1115,ĆUKOVAC,56,17501
1116,ĆURKOVICA,56,17508
1117,URMANICA,56,17507
1118,UŠEVCE,56,17507
1120,CRNI LUG,56,17521
1121,ČESTELIN,56,17501
1122,VRANEŠI,57,36215
1123,VRNJAČKA BANJA,57,36210
1124,VRNJCI,57,36210
1125,VUKUŠICA,57,36215
1126,GOČ,57,36210
1127,GRAČAC,57,36215
1128,LIPOVA,57,36210
1129,NOVO SELO,57,36210
1130,OTROCI,57,36215
1131,PODUNAVCI,57,36215
1132,RSAVCI,57,36216
1133,RUĐINCI,57,36210
1134,STANIŠINCI,57,36210
1135,ŠTULAC,57,36217
1136,VELIKI VRTOP,58,18245
1138,VELIKI KRČIMIR,58,18246
1139,VILANDRICA,58,18241
1140,GARE,58,18242
1141,GADŽIN HAN,58,18240
1142,GORNJE VLASE,58,18240
1143,GORNJE DRAGOVLJE,58,18245
1144,GORNJI BARBEŠ,58,18241
1145,GORNJI DUŠNIK,58,18242
1146,GRKINJA,58,18240
1147,DONJE DRAGOVLJE,58,18242
1148,DONJI BARBEŠ,58,18241
1149,DONJI DUŠNIK,58,18242
1150,DUGA POLJANA,58,18242
1151,DUKAT,58,18241
1152,JAGLIČJE,58,18240
1153,KALETINAC,58,18242
1154,KOPRIVNICA,58,18240
1155,KRASTAVČE,58,18242
1156,LIČJE,58,18245
1157,MALI VRTOP,58,18245
1158,MALI KRČIMIR,58,18245
1159,MARINA KUTINA,58,18240
1160,MILJKOVAC,58,18242
1161,NOVO SELO,58,18244
1162,OVSINJINAC,58,18242
1163,RAVNA DUBRAVA,58,18246
1164,SEMČE,58,18245
1165,SOPOTNICA,58,18242
1166,TASKOVIĆI,58,18240
1167,ZAPLANJSKA TOPONICA,58,18244
1168,ĆELIJE,58,18242
1169,ČAGROVAC,58,18240
1170,ŠEBET,58,18245
1171,BARIČ,59,12222
1172,BIKINJE,59,12222
1173,BRANIČEVO,59,12222
1174,BRNJICA,59,12223
1175,VINCI,59,12223
1176,VOJILOVO,59,12223
1177,GOLUBAC,59,12223
1178,DVORIŠTE,59,12223
1179,DOBRA,59,12224
1180,DONJA KRUŠEVICA,59,12222
1181,DUŠMANIĆ,59,12258
1182,ŽITKOVICA,59,12223
1183,KLENJE,59,12258
1184,KRIVAČA,59,12257
1185,KUDREŠ,59,12223
1186,MALEŠEVO,59,12223
1187,MILJEVIĆ,59,12253
1188,MRČKOVAC,59,12258
1189,PONIKVE,59,12222
1190,RADOŠEVAC,59,12223
1191,SLADINAC,59,12223
1192,SNEGOTIN,59,12223
1193,USIJE,59,12223
1194,ŠUVAJIĆ,59,12253
1195,BELO POLJE,60,32315
1196,BERŠIĆI,60,32304
1197,BOGDANICA,60,32308
1198,BOLJKOVCI,60,32312
1199,BRAJIĆI,60,32308
1200,BRĐANI,60,32303
1201,BREZNA,60,32307
1202,BREZOVICA,60,NULL
1203,BRUSNICA,60,32300
1204,VARNICE,60,32314
1205,VELEREČ,60,32300
1206,VRAĆEVŠNICA,60,32315
1207,VRNČANI,60,32312
1208,GOJNA GORA,60,32308
1209,GORNJA VRBAVA,60,32315
1210,GORNJA CRNUĆA,60,32315
1211,GORNJI BANJANI,60,32304
1212,GORNJI BRANETIĆI,60,32304
1213,GORNJI MILANOVAC,60,32300
1214,GRABOVICA,60,32300
1215,DAVIDOVICA,60,32312
1216,DONJA VRBAVA,60,32315
1217,DONJA CRNUĆA,60,32315
1218,DONJI BRANETIĆI,60,32304
1219,DRAGOLJ,60,32316
1220,DRENOVA,60,32304
1221,DRUŽETIĆI,60,32308
1222,ZAGRAĐE,60,32314
1223,JABLANICA,60,32300
1224,KALIMANIĆI,60,32300
1225,KAMENICA,60,32308
1226,KLATIČEVO,60,32300
1227,KOŠTUNIĆI,60,32308
1228,KRIVA REKA,60,32312
1229,LEUŠIĆI,60,32308
1230,LIPOVAC,60,32315
1231,LOZANJ,60,32304
1232,LOČEVCI,60,32304
1233,LUNJEVICA,60,32300
1234,LJEVAJA,60,32304
1235,LJUTOVNICA,60,32300
1236,MAJDAN,60,32313
1237,MUTANJ,60,32312
1238,NAKUČANI,60,32312
1239,NEVADE,60,32300
1240,OZREM,60,32304
1241,POLOM,60,32304
1242,PRANJANI,60,32308
1243,PRNJAVOR,60,32315
1244,RELJINCI,60,32314
1245,RUDNIK,60,32313
1246,RUČIĆI,60,32312
1247,SVRAČKOVCI,60,32300
1248,SEMEDRAŽ,60,32300
1249,SINOŠEVIĆI,60,32304
1250,SREZOJEVCI,60,32307
1251,TAKOVO,60,32304
1252,TEOČIN,60,32307
1253,TRUDELJ,60,32314
1254,UGRINOVCI,60,32314
1255,CEROVA,60,32312
1256,ŠARANI,60,32304
1257,ŠILOPAJ,60,32312
1258,BALAJNAC,206,35223
1259,BARE,206,35237
1260,BELJAJKA,206,35213
1261,BOGAVA,206,35223
1262,BRESTOVO,206,35223
1263,BUKOVAC,206,35213
1264,VELIKI POPOVIĆ,206,35223
1265,VITANCE,206,35213
1266,GRABOVICA,206,35212
1267,DVORIŠTE,206,35215
1268,DESPOTOVAC,206,35213
1269,VOJNIK,206,35213
1270,ŽIDILJE,206,35237
1271,ZLATOVO,206,35212
1272,JASENOVO,206,35241
1273,JEZERO,206,35215
1274,JELOVAC,206,35215
1275,LIPOVICA,206,35213
1276,LOMNICA,206,35213
1277,MAKVIŠTE,206,35237
1278,MEDVEĐA,206,35224
1279,MILIVA,206,35213
1280,PANJEVAC,206,35213
1281,PLAŽANE,206,35212
1282,POPOVNJAK,206,35215
1283,RAVNA REKA,206,35237
1284,RESAVICA,206,35237
1285,RESAVICA (SELO),206,35215
1286,SENJSKI RUDNIK,206,35234
1287,SLADAJA,206,35215
1288,STENJEVAC,206,35215
1289,STRMOSTEN,206,35215
1290,TRUĆEVAC,206,35213
1291,BOLJEV DOL,61,18324
1292,BANJSKI DOL,61,18326
1293,BARJE,61,18320
1294,BAČEVO,61,18320
1295,BILO,61,18320
1296,BRAĆEVCI,61,18324
1297,BREBEVNICA,61,18323
1298,VERZAR,61,18320
1299,VISOČKI ODOROVCI,61,18323
1300,VLKOVIJA,61,18324
1301,VRAPČA,61,18320
1302,GOJIN DOL,61,18320
1303,GORNJA NEVLJA,61,18320
1304,GORNJI KRIVODOL,61,18324
1305,GRADINJE,61,18320
1306,GRAPA,61,18320
1307,GULENOVCI,61,18323
1308,DIMITROVGRAD,61,18320
1309,DONJA NEVLJA,61,18320
1310,DONJI KRIVODOL,61,18324
1311,DRAGOVITA,61,18326
1312,ŽELJUŠA,61,18325
1313,IZATOVCI,61,18324
1314,ISKROVCI,61,18326
1315,KAMENICA,61,18324
1316,KUSA VRANA,61,18326
1317,LUKAVICA,61,18320
1318,MAZGOŠ,61,18323
1319,MOJINCI,61,18323
1320,PASKAŠIJA,61,18322
1321,PETAČINCI,61,18326
1322,PETRLAŠ,61,18323
1323,GORNJA PLANINICA,61,18320
1324,POGANOVO,61,18326
1325,PRAČA,61,18320
1326,PROTOPOPINCI,61,18323
1327,RADEJNA,61,18323
1328,SENAKOS,61,18324
1329,SKRIVENICA,61,18320
1330,SLIVNICA,61,18325
1331,SMILOVCI,61,18323
1332,TRNSKI ODOROVCI,61,18326
1333,BELOTINAC,62,18411
1334,DOLJEVAC,62,18410
1335,KLISURA,62,18417
1336,KNEŽICA,62,18415
1337,KOČANE,62,18410
1338,MALOŠIŠTE,62,18415
1339,MEKIŠ,62,18410
1340,ORLJANE,62,18410
1341,PERUTINA,62,18415
1342,PUKOVAC,62,18255
1343,RUSNA,62,18417
1344,ĆURLINA,62,18415
1345,ČAPLJINAC,62,18411
1346,ČEČINA,62,18417
1347,ŠAJINOVAC,62,18410
1348,ŠARLINCE,62,18410
1349,ALEKSANDROVAC,63,12370
1350,BRZOHODE,63,12374
1351,VITEŽEVO,63,12375
1352,VLAŠKI DO,63,12370
1353,ŽABARI,63,12374
1354,KOČETIN,63,12374
1355,MIRIJEVO,63,12370
1356,OREOVICA,63,12370
1357,POLATNA,63,12370
1358,PORODIN,63,12375
1359,SVINJAREVO,63,12370
1360,SIBNICA,63,12374
1361,SIMIĆEVO,63,12374
1362,TIĆEVAC,63,12370
1363,ČETEREŽE,63,12374
1364,BLIZNAK,182,12316
1365,BREZNICA,182,12316
1366,VUKOVAC,182,12318
1367,ŽAGUBICA,182,12320
1368,IZVARICA,182,12318
1369,JOŠANICA,182,12318
1370,KREPOLJIN,182,12316
1371,KRUPAJA,182,12316
1372,LAZNICA,182,12320
1373,LIPE,182,NULL
1374,MEDVEĐICA,182,12316
1375,MILANOVAC,182,12316
1376,MILATOVAC,182,12320
1377,OSANICA,182,12317
1378,RIBARE,182,12318
1379,SELIŠTE,182,12321
1380,SIGE,182,12316
1381,SUVI DO,182,12322
1382,ASANOVAC,64,18406
1383,BADNJEVAC,64,18414
1384,VLAHOVO,64,18412
1385,VOLJČINCE,64,18412
1386,GLAŠINCE,64,18413
1387,GORNJE CRNATOVO,64,18414
1388,GORNJI DRENOVAC,64,18414
1389,GRUDAŠ,64,18414
1390,DEBELI LUG,64,18412
1391,DONJE CRNATOVO,64,18414
1392,DONJI DRENOVAC,64,18414
1393,DRŽANOVAC,64,18413
1394,DUBOVO,64,18406
1395,ĐAKUS,64,18413
1396,ŽITORAĐA,64,18412
1397,ZLADOVAC,64,18406
1398,JASENICA,64,18412
1399,KARE,64,18406
1400,KONJARNIK,64,18406
1401,LUKOMIR,64,18412
1402,NOVO MOMČILOVO,64,18406
1403,PEJKOVAC,64,18413
1404,PODINA,64,18412
1405,REČICA,64,18412
1406,SAMARINOVAC,64,18413
1407,SMRDIĆ,64,18413
1408,STARA BOŽURNA,64,18412
1409,STARO MOMČILOVO,64,18406
1410,STUDENAC,64,18412
1411,TOPONICA,64,18412
1412,BOROVAC,65,19347
1413,BRUSNIK,65,19313
1414,VELIKA JASIKOVA,65,19235
1415,VELIKI IZVOR,65,19206
1416,VELIKI JASENOVAC,65,19209
1417,VRAŽOGRNAC,65,19312
1418,VRATARNICA,65,19344
1419,VRBICA,65,19347
1420,GAMZIGRAD,65,19227
1421,GLOGOVICA,65,19232
1422,GORNJA BELA REKA,65,19343
1423,GRADSKOVO,65,19205
1424,GRLIŠTE,65,19342
1425,GRLJAN,65,19341
1426,DUBOČANE,65,19232
1427,ZAGRAĐE,65,19344
1428,ZAJEČAR,65,19000
1429,ZVEZDAN,65,19227
1430,JELAŠNICA,65,19223
1431,KLENOVAC,65,19313
1432,KOPRIVNICA,65,19223
1433,LASOVO,65,19343
1434,LENOVAC,65,19343
1435,LESKOVAC,65,19343
1436,LUBNICA,65,19208
1437,MALA JASIKOVA,65,19232
1438,MALI IZVOR,65,19347
1439,MALI JASENOVAC,65,19209
1440,MARINOVAC,65,19344
1441,METRIŠ,65,19224
1442,NIKOLIČEVO,65,19311
1443,PLANINICA,65,19208
1444,PRLITA,65,19341
1445,RGOTINA,65,19214
1446,SALAŠ,65,19224
1447,SELAČKA,65,19347
1448,TABAKOVAC,65,19313
1449,TRNAVAC,65,19312
1450,HALOVO,65,19205
1451,ČOKONJAR,65,19223
1452,ŠIPIKOVO,65,19209
1453,ŠLJIVAR,65,19000
1454,BEDINA VAROŠ,183,32250
1455,BRATLJEVO,183,32256
1456,BREZOVA,183,32253
1457,BRUSNIK,183,32254
1458,BUDOŽELJA,183,32250
1459,VASILJEVIĆI,183,32256
1460,VIONICA,183,32254
1461,VRMBAJE,183,32254
1462,VUČAK,183,32256
1463,GLEĐICA,183,32256
1464,GRADAC,183,32259
1465,DAJIĆI,183,32259
1466,DEVIĆI,183,32254
1467,DERETIN,183,32258
1468,DOBRI DO,183,32254
1469,DUBRAVA,183,32252
1470,ERČEGE,183,32256
1471,IVANJICA,183,32250
1472,JAVORSKA RAVNA GORA,183,32258
1473,KATIĆI,183,32253
1474,KLEKOVA,183,32253
1475,KOVILJE,183,32256
1476,KOMADINE,183,32255
1477,KORITNIK,183,32254
1478,KOSOVICA,183,32255
1479,KUMANICA,183,32255
1480,KUŠIĆI,183,32258
1481,LISA,183,32250
1482,LUKE,183,32250
1483,MANA,183,32255
1484,MASKOVA,183,32258
1485,MEDOVINE,183,32256
1486,MEĐUREČJE,183,32255
1487,MOČIOCI,183,32253
1488,OPALJENIK,183,32258
1489,OSONICA,183,32250
1490,PRESEKA,183,32253
1491,PRILIKE,183,32252
1492,RAVNA GORA,183,32253
1493,RADALJEVO,183,32252
1494,ROVINE,183,32256
1495,ROKCI,183,32255
1496,SVEŠTICA,183,32250
1497,SIVČINA,183,32258
1498,SMILJEVAC,183,32256
1499,ČEČINA,183,32254
1500,ŠARENIK,183,32253
1501,ŠUME,183,32250
1502,BRZA PALANKA,66,19323
1503,VAJUGA,66,19328
1504,VELESNICA,66,19328
1505,VELIKA VRBICA,66,19320
1506,VELIKA KAMENICA,66,19328
1507,GRABOVICA,66,19327
1508,DAVIDOVAC,66,19326
1509,KLADOVO,66,19320
1510,KLADUŠNICA,66,19320
1511,KORBOVO,66,19329
1512,KOSTOL,66,19320
1513,KUPUZIŠTE,66,19323
1514,LJUBIČEVAC,66,19328
1515,MALA VRBICA,66,19320
1516,MANASTIRICA,66,19321
1517,MILUTINOVAC,66,19328
1518,NOVI SIP,66,19326
1519,PETROVO SELO,66,19321
1520,PODVRŠKA,66,19321
1521,REKA,66,19323
1522,REČICA,66,19321
1523,RTKOVO,66,19320
1524,TEKIJA,66,19325
1525,BAJČETINA,207,34230
1526,BALOSAVE,207,34230
1527,BARE,207,34205
1528,BEČEVICA,207,34243
1529,BORAČ,207,34243
1530,BRESTOVAC,207,34243
1531,BRNJICA,207,34244
1532,BUMBAREVO BRDO,207,34240
1533,VRBETA,207,34232
1534,VUČKOVICA,207,34240
1535,GRABOVAC,207,34230
1536,GRIVAC,207,34205
1537,GRUŽA,207,34230
1538,GUBEREVAC,207,34232
1539,GUNCATI,207,34240
1540,DRAGUŠICA,207,34240
1541,DUBRAVA,207,34244
1542,ŽUNJE,207,34240
1543,ZABOJNICA,207,34244
1544,KIKOJEVAC,207,34205
1545,KNEŽEVAC,207,34205
1546,KNIĆ,207,34240
1547,KONJUŠA,207,34243
1548,KUSOVAC,207,34243
1549,LESKOVAC,207,34232
1550,LIPNICA,207,34230
1551,LJUBIĆ,207,34230
1552,LJULJACI,207,34205
1553,OPLANIĆ,207,34243
1554,PAJSIJEVIĆ,207,34230
1555,PRETOKE,207,34240
1556,RADMILOVIĆ,207,34240
1557,RAŠKOVIĆ,207,34240
1558,SUMOROVAC,207,34244
1559,TOPONICA,207,34243
1560,ČESTIN,207,34230
1561,ALDINA REKA,67,19353
1562,ALDINAC,67,19350
1563,BALANOVAC,67,19367
1564,BALINAC,67,19350
1565,BALTA BERILOVAC,67,19353
1566,BANJSKI OREŠAC,67,19368
1567,BELI POTOK,67,19366
1568,BERČINOVAC,67,19350
1569,BOŽINOVAC,67,19366
1570,BULINOVAC,67,19368
1571,BUČJE,67,19369
1572,VALEVAC,67,19350
1573,VASILJ,67,19367
1574,VIDOVAC,67,19350
1575,VINA,67,19368
1576,VITKOVAC,67,19340
1577,VLAŠKO POLJE,67,19369
1578,VRTOVAC,67,19353
1579,GABROVNICA,67,19353
1580,GLOGOVAC,67,19367
1581,GORNJA KAMENICA,67,19352
1582,GORNJA SOKOLOVICA,67,19350
1583,GORNJE ZUNIČE,67,19350
1584,GRADIŠTE,67,19350
1585,GREZNA,67,19350
1586,DEBELICA,67,19340
1587,DEJANOVAC,67,19350
1588,DONJA KAMENICA,67,19352
1589,DONJA SOKOLOVICA,67,19369
1590,DONJE ZUNIČE,67,19345
1591,DRVNIK,67,19350
1592,DRENOVAC,67,19340
1593,DREČINOVAC,67,19350
1594,ŽLNE,67,19350
1595,ŽUKOVAC,67,19350
1596,ZORUNOVAC,67,19368
1597,ZUBETINAC,67,19369
1598,INOVO,67,19353
1599,JAKOVAC,67,19340
1600,JALOVIK IZVOR,67,19353
1601,JANJA,67,19353
1602,JELAŠNICA,67,19345
1603,KALIČINA,67,19350
1604,KALNA,67,19353
1605,KANDALICA,67,19350
1606,KNJAŽEVAC,67,19350
1607,KOŽELJ,67,19340
1608,KRENTA,67,19350
1609,LEPENA,67,19369
1610,LOKVA,67,19350
1611,MANJINAC,67,19340
1612,MILJKOVAC,67,19362
1613,MINIĆEVO,67,19340
1614,MUČIBABA,67,19350
1615,NOVO KORITO,67,19340
1616,OREŠAC,67,19362
1617,OŠLJANE,67,19340
1618,PAPRATNA,67,19352
1619,PETRUŠA,67,19340
1620,PODVIS,67,19362
1621,PONOR,67,19350
1622,POTRKANJE,67,19345
1623,PRIČEVAC,67,19350
1624,RAVNA,67,19345
1625,RAVNO BUČJE,67,19353
1626,RADIČEVAC,67,19345
1627,RGOŠTE,67,19362
1628,REPUŠNICA,67,19350
1629,SVRLJIŠKA TOPLA,67,19366
1630,SKROBNICA,67,19367
1631,SLATINA,67,19368
1632,STANJINAC,67,19353
1633,STARO KORITO,67,19350
1634,STOGAZOVAC,67,19350
1635,TATRAŠNICA,67,19353
1636,TRGOVIŠTE,67,19350
1637,TRNOVAC,67,19340
1638,CRVENJE,67,19350
1639,CRNI VRH,67,19353
1640,ĆUŠTICA,67,19353
1641,ŠARBANOVAC,67,19345
1642,ŠESTI GABAR,67,19353
1643,ŠTIPINA,67,19350
1644,ŠTITARAC,67,19350
1645,ŠTRBAC,67,19352
1646,ŠUMAN TOPLA,67,19368
1647,BJELOPERICA,184,31260
1648,BRAJKOVIĆI,184,31260
1649,VARDA,184,31263
1650,GALOVIĆI,184,31260
1651,GODEČEVO,184,31263
1652,GODLJEVO,184,31262
1653,GORNJA POLOŠNICA,184,31263
1654,DONJA POLOŠNICA,184,31262
1655,DRENOVCI,184,31265
1656,DUBNICA,184,31260
1657,KOSJERIĆ (VAROŠ),184,31260
1658,KOSJERIĆ (SELO),184,31260
1659,MAKOVIŠTE,184,31262
1660,MIONICA,184,31265
1661,MRČIĆI,184,31265
1662,MUŠIĆI,184,31260
1663,PARAMUN,184,31262
1664,RADANOVCI,184,31265
1665,ROSIĆI,184,31265
1666,RUDA BUKVA,184,31263
1667,SEČA REKA,184,31262
1668,SKAKAVCI,184,31265
1669,STOJIĆI,184,31265
1670,SUBJEL,184,31260
1671,TUBIĆI,184,31260
1672,CIKOTE,184,31262
1673,ŠEVRLJUGE,184,31260
1674,BATALAGE,68,15221
1675,BRDARICA,68,15226
1676,BRESNICA,68,15220
1677,GALOVIĆ,68,15227
1678,GOLOČELO,68,15227
1679,GRADOJEVIĆ,68,15227
1680,DONJE CRNILJEVO,68,15227
1681,DRAGINJE,68,15226
1682,DRUŽETIĆ,68,15220
1683,ZUKVE,68,15220
1684,KAMENICA,68,15222
1685,KOCELJEVA,68,15220
1686,LJUTICE,68,15220
1687,MALI BOŠNJAK,68,15220
1688,SVILEUVA,68,15221
1689,SUBOTICA,68,15220
1690,ĆUKOVINE,68,15227
1691,ADŽINE LIVADE,230,34202
1692,BALJKOVAC,227,34000
1693,BELOŠEVAC,227,34000
1694,BOTUNJE,227,34224
1695,BUKOROVAC,227,34217
1696,VELIKA SUGUBINA,227,34206
1697,VELIKE PČELICE,227,34206
1698,VELIKI ŠENJ,229,34322
1699,VINJIŠTE,230,34202
1700,VLAKČA,229,34323
1701,GOLOČELO,230,34231
1702,GORNJA SABANTA,227,34206
1703,GORNJE GRBICE,226,34325
1704,GORNJE JARUŠICE,226,34322
1705,GORNJE KOMARICE,227,34224
1706,GROŠNICA,230,34113
1707,DESIMIROVAC,226,34321
1708,DIVOSTIN,230,34204
1709,DOBRAČA,229,34205
1710,DONJA SABANTA,227,34206
1711,DONJE GRBICE,226,34204
1712,DONJE KOMARICE,227,34224
1713,DRAGOBRAĆA,230,34231
1714,DRAČA,230,34204
1715,DRENOVAC,230,34113
1716,DULENE,227,34206
1717,ĐURISELO,230,34231
1718,ERDEČ,230,34207
1719,ŽDRALJICA,227,34208
1720,ILIĆEVO,227,34203
1721,JABUČJE,227,34217
1722,JOVANOVAC,226,34000
1723,KAMENICA,229,34205
1724,KORIĆANI,230,34113
1725,KORMAN,227,34224
1726,KOTRAŽA,229,34323
1728,KUTLOVO,230,34205
1729,LUŽNICE,226,34325
1730,LJUBIČEVAC,229,34323
1731,MALA VRBICA,229,34205
1732,MALE PČELICE,230,34216
1733,MALI ŠENJ,226,34325
1734,MARŠIĆ,227,34203
1735,MASLOŠEVO,229,34323
1736,MIRONIĆ,226,34325
1737,NOVI MILANOVAC,226,34225
1738,OPORNICA,226,34321
1739,PAJAZITOVO,226,34325
1740,PETROVAC,226,34110
1741,POSKURICE,226,34219
1742,PREKOPEČA,230,34204
1743,RAMAĆA,229,34205
1744,RESNIK,226,34225
1745,ROGOJEVAC,230,34205
1746,STANOVO,230,34113
1747,STRAGARI,229,34323
1748,TEFERIČ,227,34217
1749,TREŠNJEVAK,230,34202
1750,TRMBAS,227,34217
1751,UGLJAREVAC,229,34323
1752,CVETOJEVAC,226,34211
1753,CEROVAC,226,34321
1754,ČUMIĆ,226,34322
1755,ŠLJIVOVAC,226,34219
1756,ADRANI,185,36203
1757,BAPSKO POLJE,185,36202
1758,BARE,185,36342
1759,BZOVIK,185,36222
1760,BOGUTOVAC,185,36341
1761,BOJANIĆI,185,36342
1762,BOROVO,185,36342
1763,BREZNA,185,36103
1764,BREZOVA,185,36343
1765,BRESNIK,185,36341
1766,BUKOVICA,185,36202
1767,VITANOVAC,185,36206
1768,VITKOVAC,185,36207
1769,VRBA,185,36214
1770,VRDILA,185,36000
1771,VRH,185,36343
1772,GLEDIĆ,185,36220
1773,GODAČICA,185,36220
1774,GOKČANICA,185,36342
1775,GOTOVAC,185,36221
1776,GRDICA,185,36000
1777,DEDEVCI,185,36205
1778,DOLAC,185,36343
1779,DRAGOSINJCI,185,36212
1780,DRAŽINIĆE,185,36222
1781,DRAKČIĆI,185,36000
1782,DRLUPA,185,36207
1783,ĐAKOVO,185,36343
1784,ZAKLOPAČA,185,36214
1785,ZAKUTA,185,36207
1786,ZAMČANJE,185,36341
1787,ZASAD,185,36343
1788,JARČUJAK,185,36000
1789,KAMENICA,185,36103
1790,KAMENJANI,185,36342
1791,KOVANLUK,185,36103
1792,KOVAČI,185,36103
1793,KONAREVO,185,36340
1794,KRALJEVO,185,36000
1796,LAĐEVCI,185,36204
1797,LAZAC,185,36202
1798,LEŠEVO,185,36220
1799,LOZNO,185,36342
1800,LOPATNICA,185,36341
1801,MAGLIČ,185,36341
1802,MATARUGE,185,36201
1803,MATARUŠKA BANJA,185,36201
1804,MEĐUREČJE,185,36342
1805,MELJANICA,185,36103
1806,METIKOŠ,185,36212
1807,MILAVČIĆI,185,36206
1808,MILAKOVAC,185,36207
1809,MILIĆE,185,36343
1810,MILOČAJ,185,36204
1811,MLANČA,185,36343
1812,MRSAĆ,185,36202
1813,MUSINA REKA,185,36202
1814,OBRVA,185,36204
1815,OPLANIĆI,185,36208
1816,ORLJA GLAVA,185,36343
1817,PEKČANICA,185,36205
1818,PETROPOLJE,185,36207
1819,PEČENOG,185,36207
1820,PLANA,185,36342
1821,POLUMIR,185,36342
1822,POPOVIĆI,185,36208
1823,PREDOLE,185,36342
1824,PROGORELICA,185,36340
1825,RAVANICA,185,36220
1826,RATINA,185,36212
1827,REKA,185,36222
1828,RIBNICA,185,36103
1829,ROĆEVIĆI,185,36205
1830,RUDNO,185,36222
1831,RUDNJAK,185,36342
1832,SAVOVO,185,36343
1833,SAMAILA,185,36202
1834,SIBNICA,185,36207
1835,SIRČA,185,36208
1836,STANČA,185,36205
1837,STUBAL,185,36220
1838,TAVNIK,185,36204
1839,TADENJE,185,36342
1840,TEPEČE,185,36342
1841,TOLIŠNICA,185,36341
1842,TRGOVIŠTE,185,36208
1843,UŠĆE,185,36342
1844,CVETKE,185,36204
1845,CERJE,185,36342
1846,ČIBUKOVAC,185,36000
1847,ČUKOJEVAC,185,36220
1848,ŠUMARICE,185,36208
1849,BANJEVAC,70,15314
1850,BELA CRKVA,70,15313
1851,BOGOŠTICA,70,15314
1852,GORNJE BREZOVICE,70,15312
1853,BRŠTICA,70,15314
1854,VRBIĆ,70,15313
1855,DVORSKA,70,15314
1857,STUDENICA,185,36343
1858,ZAVLAKA,70,15312
1859,KOSTAJNIK,70,15314
1860,KRASAVA,70,15312
1861,KRŽAVA,70,15314
1862,KRUPANJ,70,15314
1863,LIKODRA,70,15314
1864,LIPENOVIĆ,70,15314
1865,MOJKOVIĆ,70,15312
1866,PLANINA,70,15314
1867,RAVNAJA,70,15312
1868,STAVE,70,15313
1869,TOLISAVAC,70,15313
1870,TOMANJ,70,15314
1871,CVETULJA,70,15312
1872,CEROVA,70,15314
1873,ŠLJIVOVA,70,15314
1874,BEGOVO BRDO,208,37208
1875,BELA VODA,208,37253
1876,BELASICA,208,37203
1877,BIVOLJE,208,37000
1878,BOVAN,208,37201
1879,BOJINCE,208,37204
1880,BOLJEVAC,208,37205
1881,BRAJKOVAC,208,37253
1882,BUKOVICA,208,37209
1883,BUCI,208,37209
1884,VELIKA KRUŠEVICA,208,37252
1885,VELIKA LOMNICA,208,37209
1886,VELIKI KUPCI,208,37222
1887,VELIKI ŠILJEGOVAC,208,37204
1888,VELIKO GOLOVODE,208,37000
1889,VELIKO KRUŠINCE,208,37204
1890,VITANOVAC,208,37222
1891,VRATARE,208,37257
1892,VUČAK,208,37000
1893,GAVEZ,208,37252
1894,GAGLOVO,208,37201
1895,GARI,208,37000
1896,GLOBARE,208,37257
1897,GLOBODER,208,37251
1898,GORNJI STEPOŠ,208,37221
1899,GREVCI,208,37204
1900,GRKLJANE,208,37222
1901,DVORANE,208,37206
1902,DEDINA,208,37000
1903,DOBROMIR,208,37201
1904,DOLJANE,208,37233
1905,DONJI STEPOŠ,208,37221
1906,ĐUNIS,208,37202
1907,ŽABARE,208,37233
1908,ZDRAVINJE,208,37203
1909,ZEBICA,208,37204
1910,ZUBOVAC,208,37205
1911,JABLANICA,208,37222
1912,JASIKA,208,37252
1913,JOŠJE,208,37202
1914,KAMENARE,208,37254
1915,KAONIK,208,37256
1916,KAPIDŽIJA,208,37201
1917,KOBILJE,208,37000
1918,KOMORANE,208,37254
1919,KONJUH,208,37254
1920,KOŠEVI,208,37208
1921,KRVAVICA,208,37257
1922,KRUŠEVAC,208,37000
1923,KUKLJIN,208,37253
1924,LAZAREVAC,208,37246
1925,LAZARICA,208,37000
1926,LIPOVAC,208,37000
1927,LOVCI,208,37206
1928,LUKAVAC,208,37231
1929,LJUBAVA,208,37254
1930,MAJDEVO,208,37222
1931,MAKREŠANE,208,37000
1932,MALA VRBNICA,208,37233
1933,MALA REKA,208,37204
1934,MALI KUPCI,208,37222
1935,MALI ŠILJEGOVAC,208,37201
1936,MALO GOLOVODE,208,37000
1937,MALO KRUŠINCE,208,37205
1938,MAČKOVAC,208,37251
1939,MEŠEVO,208,37233
1940,MODRICA,208,37206
1941,MUDRAKOVAC,208,37000
1942,NAUPARE,208,37221
1943,PADEŽ,208,37257
1944,PAKAŠNICA,208,37000
1945,PARUNOVAC,208,37201
1946,PASJAK,208,37201
1947,PEPELJEVAC,208,37208
1948,PETINA,208,37206
1949,POZLATA,208,37203
1950,POLJACI,208,37206
1951,RIBARE,208,37205
1952,RIBARSKA BANJA,208,37205
1953,RLICA,208,37203
1954,ROSICA,208,37205
1955,SEBEČEVAC,208,37222
1956,SEZEMČE,208,37206
1957,SLATINA,208,37206
1958,SRNDALJE,208,37205
1959,SRNJE,208,37252
1960,STANCI,208,37000
1961,SUVAJA,208,37222
1962,SUŠICA,208,37204
1963,TEKIJA,208,37000
1964,TREBOTIN,208,37233
1965,TRMČARE,208,37206
1966,ĆELIJE,208,37222
1967,CEROVA,208,37000
1968,CRKVINA,208,37204
1969,ČITLUK,208,37000
1970,ŠAVRANE,208,37222
1971,ŠANAC,208,37252
1972,ŠAŠILOVAC,208,37257
1973,ŠOGOLJ,208,37222
1974,ŠTITARE,208,37222
1975,BABICA,71,18436
1976,BARLOVO,71,18432
1977,BAĆOGLAVA,71,18430
1978,BELO POLJE,71,18430
1979,BOGUJEVAC,71,18432
1980,VASILJEVAC,71,18445
1981,VELIKO PUPAVCE,71,18433
1982,VISOKA,71,18430
1983,VLAHINJA,71,18438
1984,VRELO,71,18435
1985,VRŠEVAC,71,18430
1986,VUKOJEVAC,71,18435
1987,GORNJA MIKULJANA,71,18430
1988,GORNJE TOČANE,71,18432
1989,GRABOVNICA,71,18432
1990,DABINOVAC,71,18435
1991,DANKOVIĆE,71,18430
1992,DEGRMEN,71,18445
1993,DEDINAC,71,18432
1994,DEŠIŠKA,71,18440
1995,DOBRI DO,71,18408
1996,DONJA MIKULJANA,71,18430
1997,DONJE TOČANE,71,18432
1998,DUBRAVA,71,18430
1999,ĐAKE,71,18433
2000,ŽALICA,71,18436
2001,ŽEGROVA,71,18430
2002,ŽUČ,71,18438
2003,ZAGRAĐE,71,18408
2004,ZEBICA,71,18440
2005,IVAN KULA,71,18408
2006,IGRIŠTE,71,18438
2007,KASTRAT,71,18430
2008,KONJUVA,71,18426
2009,KOSMAČA,71,18432
2010,KRTOK,71,18435
2011,KRČMARE,71,18430
2012,KUPINOVO,71,18440
2013,KURŠUMLIJA,71,18430
2014,KURŠUMLISKA BANJA,71,18435
2015,KUTLOVO,71,18440
2016,LUKOVO,71,18437
2017,LJUTOVA,71,18437
2018,LJUŠA,71,18435
2019,MAGOVO,71,18436
2020,MALA KOSANICA,71,18440
2021,MARIČIĆE,71,18432
2022,MARKOVIĆE,71,18430
2023,MATAROVA,71,18445
2024,MAČJA STENA,71,18445
2025,MAČKOVAC,71,18430
2026,MERDARE,71,18445
2027,MERĆEZ,71,18436
2028,MEHANE,71,18433
2029,MIRNICA,71,18430
2030,MRČE,71,18437
2031,NEVADA,71,18438
2032,NOVO SELO,71,18432
2033,ORLOVAC,71,18440
2034,PARADA,71,18437
2035,PAČARAĐA,71,18436
2036,PEVAŠTICA,71,18436
2037,PEPELJEVAC,71,18430
2038,PERUNIKA,71,18430
2039,PLJAKOVO,71,18430
2040,PREVETICA,71,18445
2041,PREKORAĐE,71,18445
2042,PROLOM,71,18433
2043,RAVNI ŠORT,71,18440
2044,RASTELICA,71,18437
2045,RAČA,71,18440
2046,RUDARE,71,18430
2047,SAGONJEVO,71,18438
2048,SAMOKOVO,71,18430
2049,SVINJIŠTE,71,18408
2050,SEKIRAČA,71,18408
2051,SELIŠTE,71,18430
2052,SELOVA,71,18438
2053,SEOCE,71,18437
2054,SPANCE,71,18426
2055,TAČEVAC,71,18435
2056,TIJOVAC,71,18430
2057,TMAVA,71,18426
2058,TREBINJE,71,18437
2059,TREĆAK,71,18436
2060,TRMKA,71,18435
2061,TRN,71,18408
2062,TRPEZA,71,18408
2063,ŠATRA,71,18435
2064,ŠTAVA,71,18437
2065,BLAGOJEV KAMEN,186,12256
2066,BRODICA,186,12256
2067,BUKOVSKA,186,12240
2068,VELIKA BRESNICA,186,12254
2069,VOLUJA,186,12256
2070,VUKOVIĆ,186,12258
2071,DUBOKA,186,12255
2072,ZELENIK,186,12258
2073,KAONA,186,12240
2074,KUČAJNA,186,12240
2075,KUČEVO,186,12240
2076,LJEŠNICA,186,12257
2077,MALA BRESNICA,186,12254
2078,MIŠLJENOVAC,186,12254
2079,MUSTAPIĆ,186,12254
2080,NERESNICA,186,12242
2081,RABROVO,186,12254
2082,RAVNIŠTE,186,12240
2083,RADENKA,186,12255
2084,RAKOVA BARA,186,12257
2085,SENA,186,12240
2086,SRPCE,186,12258
2087,TURIJA,186,12257
2088,CEREMOŠNJA,186,12240
2089,CEROVICA,186,12240
2090,ŠEVICA,186,12240
2091,BAJEVAC,72,14223
2092,VRAČEVIĆ,72,14225
2093,DONJI LAJKOVAC,72,14225
2094,JABUČJE,72,14226
2095,LAJKOVAC (VAROŠ),72,14224
2096,LAJKOVAC (SELO),72,14224
2097,MALI BORAK,72,14226
2098,MARKOVA CRKVA,72,14223
2099,NEPRIČAVA,72,14223
2100,PEPELJEVAC,72,14224
2101,PRIDVORICA,72,14223
2102,BOGOVAĐA,72,14225
2103,RATKOVAC,72,14223
2104,RUBRIBREZA,72,14224
2105,SKOBALJ,72,14226
2106,SLOVAC,72,14223
2107,STEPANJE,72,14223
2108,STRMOVO,72,14223
2109,ĆELIJE,72,14224
2110,BAČEVINA,73,16233
2111,BOŠNJACE,73,16232
2112,BUVCE,73,16230
2113,VELIKO VOJLOVCE,73,16232
2114,GEGLJA,73,16230
2115,GOLI RID,73,16230
2116,GORNJE VRANOVCE,73,16230
2117,GRGUROVCE,73,16230
2118,DONJE VRANOVCE,73,16232
2119,DRVODELJ,73,16230
2120,ŽDEGLOVO,73,16232
2121,KLAJIĆ,73,16230
2122,KONJINO,73,16232
2123,KRIVAČA,73,16230
2124,LALINOVAC,73,16230
2125,LEBANE,73,16230
2126,LIPOVICA,73,16230
2127,LUGARE,73,16232
2128,MALO VOJLOVCE,73,16232
2129,NOVA TOPOLA,73,16230
2130,NOVO SELO,73,16230
2131,PERTATE,73,16232
2132,PETROVAC,73,16233
2133,POPOVCE,73,16230
2134,POROŠTICA,73,16230
2135,PREKOPČELICA,73,16230
2136,RADEVCE,73,16230
2137,RADINOVAC,73,16230
2138,RAFUNA,73,16230
2139,SVINJARICA,73,16230
2140,SEKICOL,73,16230
2141,SLIŠANE,73,16233
2142,TOGOČEVCE,73,16232
2143,ĆENOVAC,73,16232
2144,CEKAVICA,73,16232
2145,ŠARCE,73,16230
2146,ŠILOVO,73,16230
2147,ŠTULAC,73,16230
2148,ŠUMANE,73,16230
2149,BABIČKO,187,16252
2150,BADINCE,187,16000
2151,BARJE,187,16204
2152,BELANOVCE,187,16000
2153,BELI POTOK,187,16203
2154,BISTRICA,187,16220
2155,BOBIŠTE,187,16000
2156,BOGOJEVCE,187,16254
2157,BOJIŠINA,187,16220
2158,BOĆEVICA,187,16220
2159,BRATMILOVCE,187,16000
2160,BREJANOVCE,187,16251
2161,BRESTOVAC,187,16253
2162,BRZA,187,16203
2163,BRIČEVLJE,187,16222
2164,BUKOVA GLAVA,187,16204
2165,BUNUŠKI ČIFLUK,187,16203
2166,VELIKA BILJANICA,187,16201
2167,VELIKA GRABOVNICA,187,16221
2168,VELIKA KOPAŠNICA,187,16221
2169,VELIKA SEJANICA,187,16220
2170,VELIKO TRNJANE,187,16000
2172,VINA,187,16204
2173,VINARCE,187,16000
2174,VLASE,187,16231
2175,VUČJE,187,16203
2176,GAGINCE,187,16204
2177,GOLEMA NJIVA,187,16254
2178,GORINA,187,16204
2179,GORNJA BUNUŠA,187,16203
2180,GORNJA JAJINA,187,16000
2181,GORNJA KUPINOVICA,187,16201
2182,GORNJA LOKOŠNICA,187,16252
2183,GORNJA SLATINA,187,16201
2184,GORNJE KRAJINCE,187,16000
2185,GORNJE SINKOVCE,187,16000
2186,GORNJE STOPANJE,187,16000
2187,GORNJE TRNJANE,187,16231
2188,GORNJI BUNIBROD,187,16211
2189,GRADAŠNICA,187,16201
2190,GRAJEVCE,187,16201
2191,GRAOVO,187,16222
2192,GRDANICA,187,16252
2193,GRDELICA (VAROŠ),187,16220
2194,GRDELICA (SELO),187,16220
2195,GUBEREVAC,187,16211
2196,DEDINA BARA,187,16220
2197,DOBROTIN,187,16221
2198,DONJA BUNUŠA,187,16203
2199,DONJA JAJINA,187,16000
2200,DONJA KUPINOVICA,187,16201
2201,DONJA LOKOŠNICA,187,16252
2202,DONJA SLATINA,187,16201
2203,DONJE BRIJANJE,187,16206
2204,DONJE KRAJINCE,187,16000
2205,DONJE SINKOVCE,187,16000
2206,DONJE STOPANJE,187,16000
2207,DONJE TRNJANE,187,16231
2208,DONJI BUNIBROD,187,16211
2209,DRAŠKOVAC,187,16253
2210,DRVODELJA,187,16204
2211,DRĆEVAC,187,16254
2212,DUŠANOVO,187,16000
2213,ŽABLJANE,187,16203
2214,ŽIVKOVO,187,16251
2215,ŽIŽAVICA,187,16211
2216,ZAGUŽANE,187,16221
2217,ZALUŽNJE,187,16000
2218,ZLOKUĆANE,187,16254
2219,ZLOĆUDOVO,187,16000
2220,ZOLJEVO,187,16221
2221,IGRIŠTE,187,16204
2222,JARSENOVO,187,16201
2223,JAŠUNJA,187,16254
2224,JELAŠNICA,187,16201
2225,KALUĐERCE,187,16204
2226,KARAĐORĐEVAC,187,16000
2227,KAŠTAVAR,187,16251
2228,KOVAČEVA BARA,187,16220
2229,KOZARE,187,16220
2230,KORAĆEVAC,187,16222
2231,KRPEJCE,187,16222
2232,KUKULOVCE,187,16000
2233,KUMAREVO,187,16000
2234,KUTLEŠ,187,16253
2235,LESKOVAC,187,16000
2236,LIPOVICA,187,16253
2237,LIČIN DOL,187,16222
2238,MALA BILJANICA,187,16201
2239,MALA GRABOVNICA,187,16221
2240,MALA KOPAŠNICA,187,16221
2241,MANOJLOVCE,187,16201
2242,MEĐA,187,16253
2243,MELOVO,187,16204
2244,MILANOVO,187,16000
2245,MIROŠEVCE,187,16204
2246,MRKOVICA,187,16222
2247,MRŠTANE,187,16000
2248,NAVALIN,187,16254
2249,NAKRIVANJ,187,16203
2250,NESVRTA,187,16220
2251,NOVO SELO,187,16222
2252,NOMANICA,187,16000
2253,ORAOVICA (KOD GRDELI,187,16220
2254,ORAOVICA (KOD CRKOVN,187,16254
2255,ORAŠAC,187,16201
2256,ORUGLICA,187,16204
2257,PADEŽ,187,16220
2258,PALIKUĆA,187,16000
2259,PALOJCE,187,16220
2260,PETROVAC,187,16000
2261,PEČENJEVCE,187,16251
2262,PISKUPOVO,187,16201
2263,PODRIMCE,187,16000
2264,PREDEJANE (VAROŠ),187,16222
2265,PREDEJANE (SELO),187,16222
2266,PRESEČINA,187,16000
2267,PRIBOJ,187,16000
2268,RAVNI DEL,187,16204
2269,RADONJICA,187,16203
2270,RAZGOJNA,187,16252
2271,RAJNO POLJE,187,16201
2272,RUDARE,187,16000
2273,SVIRCE,187,16231
2274,SLAVUJEVCE,187,16204
2275,SLATINA,187,16221
2276,SMRDAN,187,16252
2277,STROJKOVCE,187,16203
2278,STUPNICA,187,16201
2279,SUŠEVLJE,187,16222
2280,TODOROVCE,187,16204
2281,TULOVO,187,16221
2282,TUPALOVCE,187,16220
2283,TUREKOVAC,187,16231
2284,CRVENI BREG,187,16222
2285,CRKOVNICA,187,16254
2286,CRCAVAC,187,16204
2287,ČEKMIN,187,16251
2288,ČIFLUK RAZGOJNSKI,187,16251
2289,ČUKLJENIK,187,16203
2290,ŠAINOVAC,187,16203
2291,ŠARLINCE,187,16253
2292,ŠIŠINCE,187,16000
2293,BANJA KOVILJAČA,74,15316
2294,BAŠČELUCI,74,15300
2295,BRADIĆ,74,15308
2296,BREZJAK,74,15309
2297,BRNJAC,74,15311
2298,VELIKO SELO,74,15311
2299,VOĆNJAK,74,15300
2300,GORNJA BADANJA,74,15234
2301,GORNJA BORINA,74,15315
2302,GORNJA KOVILJAČA,74,15316
2303,GORNJA SIPULJA,74,15234
2304,GORNJE NEDELJICE,74,15309
2305,GORNJI DOBRIĆ,74,15308
2306,GRNČARA,74,15300
2307,DONJA BADANJA,74,15234
2308,DONJA SIPULJA,74,15234
2309,DONJE NEDELJICE,74,15309
2310,DONJI DOBRIĆ,74,15307
2311,DRAGINAC,74,15311
2312,ZAJAČA,74,15315
2313,JADRANSKA LEŠNICA,74,15308
2314,JAREBICE,74,15311
2315,JELAV,74,15307
2316,JOŠEVA,74,15308
2317,JUGOVIĆI,74,15234
2318,KAMENICA,74,15308
2319,KLUPCI,74,15300
2320,KOZJAK,74,15341
2321,KORENITA,74,15302
2322,KRAJIŠNICI,74,15300
2323,LEŠNICA,74,15307
2324,LIPNICA,74,15341
2325,LIPNIČKI ŠOR,74,15341
2326,LOZNICA,74,15300
2327,LOZNIČKO POLJE,74,15300
2328,MILINA,74,15234
2329,NOVO SELO,74,15307
2330,PASKOVAC,74,15315
2331,PLOČA,74,15300
2332,POMIJAČA,74,15234
2333,RIBARICE,74,15311
2334,RUNJANI,74,15300
2335,SIMINO BRDO,74,15311
2336,SLATINA,74,15309
2337,STRAŽA,74,15307
2338,STUPNICA,74,15311
2339,TEKERIŠ,74,15234
2340,TRBOSILJE,74,15234
2341,TRBUŠNICA,74,15300
2342,TRŠIĆ,74,15300
2343,FILIPOVIĆI,74,15311
2344,CIKOTE,74,15311
2345,ČOKEŠINA,74,15306
2346,ŠURICE,74,15311
2347,BELI KAMEN,75,32235
2348,VIČA,75,32233
2349,VLASTELJICE,75,32234
2350,VUČKOVICA,75,32235
2351,GORAČIĆI,75,32232
2352,GORNJA KRAVARICA,75,32230
2353,GORNJI DUBAC,75,32234
2354,GRAB,75,32230
2355,GUBEREVCI,75,32232
2356,GUČA,75,32230
2357,GUČA (SELO),75,32230
2358,DLJIN,75,32240
2359,DONJA KRAVARICA,75,32240
2360,DONJI DUBAC,75,32234
2361,DUČALOVIĆI,75,32242
2362,ĐERAĆ,75,32240
2363,ŽIVICA,75,32232
2364,ZEOKE,75,32230
2365,KAONA,75,32234
2366,KOTRAŽA,75,32235
2367,KRIVAČA,75,32233
2368,KRSTAC,75,32240
2369,LIS,75,32240
2370,LISICE,75,32240
2371,LUČANI,75,32240
2372,LUČANI (SELO),75,32240
2373,MARKOVICA,75,32243
2374,MILATOVIĆI,75,32234
2375,NEGRIŠORI,75,32243
2376,PUHOVO,75,32240
2377,PŠANIK,75,32235
2378,ROGAČA,75,32230
2379,RTARI,75,32243
2380,RTI,75,32230
2381,TIJANJE,75,32230
2382,TURICA,75,32230
2383,BA,76,14245
2384,BABAJIĆ,76,14240
2385,BELANOVICA,76,14246
2386,BOŠNJANOVIĆ,76,14240
2387,BRANČIĆ,76,14240
2388,VELIŠEVAC,76,14240
2389,GUKOŠ,76,14240
2390,DIĆI,76,14240
2391,DONJI BANJANI,76,14240
2392,ŽIVKOVCI,76,14246
2393,IVANOVCI,76,14246
2394,JAJČIĆ,76,14240
2395,KADINA LUKA,76,14240
2396,KALANJEVCI,76,14246
2397,KOZELJ,76,14246
2398,LALINCI,76,14240
2399,LATKOVIĆ,76,14240
2400,LIPLJE,76,14246
2401,LJIG,76,14240
2402,MILAVAC,76,14240
2403,MORAVCI,76,14240
2404,PALEŽNICA,76,14245
2405,POLJANICE,76,14246
2406,SLAVKOVICA,76,14245
2407,CVETANOVAC,76,14240
2408,ŠTAVICA,76,14240
2409,ŠUTCI,76,14246
2410,BERLOVINE,188,15320
2411,VRHPOLJE,188,15324
2412,GORNJA LJUBOVIĐA,188,15342
2413,GORNJA OROVICA,188,15323
2414,GORNJA TREŠNJICA,188,15324
2415,GORNJE KOŠLJE,188,15323
2416,GRAČANICA,188,15319
2417,GRČIĆ,188,15324
2418,DONJA LJUBOVIĐA,188,15320
2419,DONJA OROVICA,188,15323
2420,DRLAČE,188,15324
2421,DUBOKO,188,15320
2422,LEOVIĆ,188,15323
2423,LONJIN,188,15320
2424,LJUBOVIJA,188,15320
2425,OROVIČKA PLANINA,188,15323
2426,PODNEMIĆ,188,15320
2427,POSTENJE,188,15319
2428,RUJEVAC,188,15319
2429,SAVKOVIĆ,188,15323
2430,SELANAC,188,15319
2431,SOKOLAC,188,15319
2432,TORNIK,188,15323
2433,UZOVNICA,188,15319
2434,CAPARIĆ,188,15324
2435,CRNČA,188,15319
2436,ČITLUK,188,15320
2437,BOLJETIN,209,19220
2438,VLAOLE,209,19256
2439,GOLUBINJE,209,19220
2440,DEBELI LUG,209,19250
2441,DONJI MILANOVAC,209,19220
2442,JASIKOVO,209,19256
2443,KLOKOČEVAC,209,19222
2444,LESKOVO,209,19256
2445,MAJDANPEK,209,19250
2446,MIROČ,209,19220
2447,MOSNA,209,19220
2448,RUDNA GLAVA,209,19257
2449,TOPOLNICA,209,19222
2450,CRNAJKA,209,19222
2451,AMAJIĆ,77,15318
2452,BRASINA,77,15317
2453,BUDIŠIĆ,77,15318
2454,VELIKA REKA,77,15322
2455,VOLJEVCI,77,15322
2456,DONJA BORINA,77,15317
2457,DONJA TREŠNJICA,77,15318
2458,MALI ZVORNIK,77,15318
2459,RADALJ,77,15321
2460,SAKAR,77,15318
2461,CULINE,77,15318
2462,ČITLUK,77,15318
2463,ALJUDOVO,189,12304
2464,BATUŠA,189,12311
2465,BOŽEVAC,189,12313
2466,VELIKO SELO,189,12311
2467,VELIKO CRNIĆE,189,12311
2468,VRBNICA,189,12311
2469,ZABREGA,189,12312
2470,KALIŠTE,189,12311
2471,KOBILJE,189,12313
2472,KRAVLJI DO,189,12311
2473,KULA,189,12313
2474,MALO GRADIŠTE,189,12312
2475,MALO CRNIĆE,189,12311
2476,SALAKOVAC,189,12000
2477,SMOLJINAC,189,12312
2478,TOPONICA,189,12311
2479,CRLJENAC,189,12315
2480,ŠAPINE,189,12312
2481,ŠLJIVOVAC,189,12372
2482,BOGUNOVAC,78,16240
2483,BOROVAC,78,16240
2484,VARADIN,78,NULL
2485,VELIKA BRAINA,78,16247
2486,VRAPCE,78,16240
2487,GAZDARE,78,16248
2488,GORNJA LAPAŠTICA,78,16240
2489,GORNJI BUČUMET,78,16240
2490,GORNJI GAJTAN,78,16248
2491,GRBAVCE,78,16246
2492,GUBAVCE,78,16247
2493,GURGUTOVO,78,16240
2494,DONJA LAPAŠTICA,78,16240
2495,DONJI BUČUMET,78,16240
2496,DONJI GAJTAN,78,16248
2497,DRENCE,78,16248
2498,ĐULEKARE,78,16240
2499,KAPIT,78,16240
2500,LECE,78,16248
2501,MALA BRAINA,78,16247
2502,MAROVAC,78,16246
2503,MAĆEDONCE,78,16240
2504,MAĆEDONCE (RETKOCERS,78,NULL
2505,MEDVEĐA,78,16240
2506,MEDEVCE,78,16247
2507,MRKONJE,78,16247
2508,NEGOSAVLJE,78,16240
2509,PETRILJE,78,16240
2510,POROŠTICA,78,16247
2511,PUSTO ŠILOVO,78,16240
2512,RAVNA BANJA,78,16246
2513,RETKOCER,78,16240
2514,RUJKOVAC,78,16240
2515,SVIRCE,78,16246
2516,SIJARINA,78,16246
2517,SIJARINSKA BANJA,78,16246
2518,SPONCE,78,16240
2519,SREDNJI BUČUMET,78,16240
2520,STARA BANJA,78,16246
2521,STUBLA,78,16240
2522,TULARE,78,16247
2523,TUPALE,78,16240
2524,CRNI VRH,78,16240
2525,ČOKOTIN,78,16247
2526,AZBRESNICA,79,18258
2527,ALEKSANDROVO,79,18252
2528,ARBANASCE,79,18253
2529,BALAJNAC,79,18251
2530,BALIČEVAC,79,18252
2531,BATUŠINAC,79,18252
2532,BILJEG,79,18252
2533,BREST,79,18252
2534,BUČIĆ,79,18253
2535,GORNJA RASOVAČA,79,18253
2536,GRADIŠTE,79,18252
2537,DEVČA,79,18253
2538,DEŠILOVO,79,18253
2539,DONJA RASOVAČA,79,18253
2540,DUDULAJCE,79,18258
2541,JOVANOVAC,79,18258
2542,JUG BOGDANOVAC,79,18253
2543,KOVANLUK,79,18252
2544,KOSTADINOVAC,79,18253
2545,KRAJKOVAC,79,18258
2546,KRUŠCE,224,18251
2547,LEPAJA,79,18252
2548,MEROŠINA,79,18252
2549,MRAMOR,224,18251
2550,MRAMORSKI POTOK,224,18251
2551,OBLAČINA,79,18252
2552,PADINA,79,18258
2553,ROŽINA,79,18252
2554,ČUBURA,79,18258
2555,BERKOVAC,80,14243
2556,BREŽĐE,80,14244
2557,BUKOVAC,80,14202
2558,VELIKA MARIŠTA,80,14242
2559,VIROVAC,80,14223
2560,VRTIGLAV,80,14242
2561,GOLUBAC,80,14202
2562,GORNJI LAJKOVAC,80,14244
2563,GORNJI MUŠIĆ,80,14242
2564,GUNJICA,80,14243
2565,DONJI MUŠIĆ,80,14242
2566,DUČIĆ,80,14243
2567,ĐURĐEVAC,80,14222
2568,KLAŠNIĆ,80,14222
2569,KLJUČ,80,14242
2570,KOMANICE,80,14242
2571,KRČMAR,80,14244
2572,MALJEVIĆ,80,14242
2573,MIONICA (VAROŠICA),80,14242
2574,MIONICA (SELO),80,14242
2575,MRATIŠIĆ,80,14202
2576,NANOMIR,80,14242
2577,OSEČENICA,80,14244
2578,PAŠTRIĆ,80,14242
2579,PLANINICA,80,14244
2580,POPADIĆ,80,14243
2581,RADOBIĆ,80,14242
2582,RAJKOVIĆ,80,14202
2583,RAKARI,80,14243
2584,ROBAJE,80,14202
2585,SANKOVIĆ,80,14242
2586,STRUGANIK,80,14244
2587,TABANOVIĆ,80,14242
2588,TODORIN DO,80,14243
2589,TOLIĆ,80,14242
2590,ŠUŠEOKA,80,14222
2591,BRAĆEVAC,190,19315
2592,BRESTOVAC,190,19306
2593,BUKOVČE,190,19316
2594,VELJKOVO,190,19318
2595,VIDROVAC,190,19300
2596,VRATNA,190,19304
2597,DUPLJANE,190,19335
2598,DUŠANOVAC,190,19335
2599,ALEKSANDROVAC,190,19314
2600,JABUKOVAC,190,19304
2601,JASENICA,190,19300
2602,KARBULOVO,190,19306
2603,KOBIŠNICA,190,19316
2604,KOVILOVO,190,19318
2605,MALA KAMENICA,190,19322
2606,MALAJNICA,190,19303
2607,MILOŠEVO,190,19300
2608,MIHAJLOVAC,190,19322
2609,MOKRANJE,190,19317
2610,NEGOTIN,190,19300
2611,PLAVNA,190,19307
2612,POPOVICA,190,19306
2613,PRAHOVO,190,19330
2614,RADUJEVAC,190,19334
2615,RAJAC,190,19314
2616,REČKA,190,19313
2617,ROGLJEVO,190,19318
2618,SAMARINOVAC,190,19300
2619,SIKOLE,190,19225
2620,SLATINA,190,19305
2621,SMEDOVAC,190,19318
2622,SRBOVO,190,19300
2623,TAMNIČ,190,19315
2624,TRNJANE,190,19306
2625,UROVICA,190,19305
2626,CRNOMASNICA,190,19315
2627,ČUBRA,190,19300
2628,ŠARKAMEN,190,19303
2629,ŠTUBIK,190,19303
2630,BANCAREVO,214,18206
2631,BERBATOVO,224,18106
2632,BERČINAC,223,18202
2633,BRENICA,222,18204
2634,BRZI BROD,218,18116
2635,BUBANJ,224,18254
2636,VELE POLJE,223,18202
2637,VRELO,222,18207
2638,VRTIŠTE,223,18202
2639,VUKMANOVO,224,18106
2640,GABROVAC,224,18106
2641,GORNJA VREŽINA,222,18207
2642,GORNJA STUDENA,214,18206
2643,GORNJA TOPONICA,223,18202
2644,GORNJA TRNAVA,223,18202
2645,GORNJE MEĐUROVO,224,18411
2646,GORNJI KOMREN,223,18106
2647,GORNJI MATEJEVAC,222,18204
2648,DONJA VREŽINA,222,18106
2649,DONJA STUDENA,214,18206
2650,DONJA TOPONICA,223,18202
2651,DONJA TRNAVA,223,18202
2652,DONJE VLASE,224,18106
2653,DONJE MEĐUROVO,224,18254
2654,DONJI KOMREN,223,18106
2655,DONJI MATEJEVAC,222,18204
2656,JASENOVIK,222,18207
2657,JELAŠNICA,214,18206
2658,KAMENICA,222,18204
2659,KNEZ SELO,222,18204
2661,KRAVLJE,223,18202
2662,KUNOVICA,214,18206
2663,LAZAREVO SELO,214,18110
2664,LALINAC,224,18203
2665,LESKOVIK,223,18106
2666,MALČA,222,18207
2667,MANASTIR,214,18206
2668,MEDOŠEVAC,223,18209
2669,MEZGRAJA,223,18202
2670,MILJKOVAC,223,18202
2671,NIKOLA TESLA,214,18110
2674,OREOVAC,222,18207
2675,OSTROVICA,214,18312
2676,PALIGRACE,223,18202
2677,PALJINA,223,18202
2678,PASI POLJANA,224,18106
2679,PASJAČA,222,18207
2680,POPOVAC,223,18106
2681,PRVA KUTINA,214,18110
2682,PROSEK,214,18206
2683,RAVNI DO,214,18312
2684,RADIKINA BARA,214,18110
2685,RAUTOVO,214,18205
2686,RUJNIK,223,18106
2687,SEČANICA,223,18203
2688,SIĆEVO,214,18311
2689,SUVI DO,224,18116
2690,SUPOVAC,223,18203
2691,TRUPALE,223,18211
2692,HUM,223,18106
2693,CERJE,222,18204
2694,ČAMURLIJA,223,18211
2695,ČOKOT,224,18250
2696,ČUKLJENIK,214,18206
2697,AKMAČIĆI,210,31320
2698,AMZIĆI,210,31318
2699,BISTRICA,210,31318
2700,BOŽETIĆI,210,31322
2701,BRDO,210,31320
2702,BUKOVIK,210,31322
2703,BURAĐA,210,31318
2704,VILOVI,210,31320
2705,VRANEŠA,210,31318
2706,GORNJA BELA REKA,210,31209
2707,GORNJE TRUDOVO,210,31322
2708,DEBELJA,210,31318
2709,DONJA BELA REKA,210,31209
2710,DRAGLICA,210,31317
2711,DRAŽEVIĆI,210,31320
2712,DRMANOVIĆI,210,31320
2713,JASENOVO,210,31319
2714,KOMARANI,210,31320
2715,KUĆANI,210,31319
2716,LEPOJEVIĆI,210,31322
2717,MIŠEVIĆI,210,31320
2718,NEGBINA,210,31317
2719,NOVA VAROŠ,210,31320
2720,OJKOVICA,210,31319
2721,RADIJEVIĆI,210,31320
2722,RADOINJA,210,31318
2723,RUTOŠI,210,31318
2724,SENIŠTA,210,31317
2725,TISOVICA,210,31322
2726,TRUDOVO,210,31319
2727,ČELICE,210,31325
2728,ŠTITKOVO,210,31322
2729,ALULOVIĆE,82,36305
2730,BAJEVICA,82,36306
2731,BANJA,82,36300
2732,BARE,82,36300
2733,BATNJIK,82,36300
2734,BEKOVA,82,36305
2735,BELE VODE,82,36314
2736,BOTUROVINA,82,36305
2737,BRĐANI,82,36300
2738,BRESTOVO,82,36300
2739,VAREVO,82,36300
2740,VEVER,82,36300
2741,VIDOVO,82,36300
2742,VITKOVIĆE,82,36306
2743,VOJKOVIĆE,82,36306
2744,VOJNIĆE,82,36305
2745,VRANOVINA,82,36305
2746,VUČINIĆE,82,36300
2747,VUČJA LOKVA,82,36300
2748,GOLICE,82,36300
2749,GORNJA TUŠIMLJA,82,36305
2750,GOŠEVO,82,36314
2751,GRAĐANOVIĆE,82,36300
2752,GRAČANE,82,36300
2753,GRUBETIĆE,82,36306
2754,DEŽEVA,82,36305
2755,DOJINOVIĆE,82,36300
2756,DOLAC,82,36305
2757,DOLJANI,82,36300
2758,DRAGOČEVO,82,36306
2759,DRAMIĆE,82,36305
2760,ŽUNJEVIĆE,82,36306
2761,ZABRĐE,82,36300
2762,ZLATARE,82,36300
2763,IVANČA,82,36300
2764,IZBICE,82,36300
2765,JABLANICA,82,36300
2766,JAVOR,82,36300
2767,JANČA,82,36314
2768,JOVA,82,36300
2769,KAŠALJ,82,36300
2770,KOVAČEVO,82,36305
2771,KOŽLJE,82,36306
2772,KOPRIVNICA,82,36300
2773,KOSURIĆE,82,36305
2774,KRUŠEVO,82,36306
2775,KUZMIČEVO,82,36305
2776,LEČA,82,36300
2777,LOPUŽNJE,82,36300
2778,LUKARE,82,36306
2779,LUKARSKO GOŠEVO,82,36306
2780,LUKOCREVO,82,36300
2781,MIŠČIĆE,82,36305
2782,MUR,82,36300
2783,MUHOVO,82,36314
2784,NEGOTINAC,82,36300
2785,NOVI PAZAR,82,36300
2786,ODOJEVIĆE,82,36300
2787,OKOSE,82,36314
2788,OSAONICA,82,36314
2789,OSOJE,82,36300
2790,OHOLJE,82,36306
2791,PAVLJE,82,36300
2792,PARALOVO,82,36300
2793,PASJI POTOK,82,36300
2794,PILARETA,82,36300
2795,POBRĐE,82,36300
2796,POŽEGA,82,36300
2797,POŽEŽINA,82,36300
2798,POLOKCE,82,36305
2799,POPE,82,36300
2800,POSTENJE,82,36300
2801,PRĆENOVA,82,36305
2802,PUSTA TUŠIMLJA,82,36305
2803,PUSTOVLAH,82,36305
2804,RADALJICA,82,36305
2805,RAJETIĆE,82,36300
2806,RAJKOVIĆE,82,36305
2807,RAJČINOVIĆE,82,36300
2808,RAJČINOVIĆKA TRNAVA,82,36300
2809,RAKOVAC,82,36314
2810,RAST,82,36305
2811,SEBEČEVO,82,36300
2812,SITNIČE,82,36300
2813,SKUKOVO,82,36305
2814,SLATINA,82,36300
2815,SMILOV LAZ,82,36300
2816,SREDNJA TUŠIMLJA,82,36300
2817,STRADOVO,82,36305
2818,SUDSKO SELO,82,36305
2819,TENKOVO,82,36305
2820,TRNAVA,82,36300
2821,TUNOVO,82,36305
2822,HOTKOVO,82,36300
2823,COKOVIĆE,82,36300
2824,ČAŠIĆ DOLAC,82,36306
2825,ŠAVCI,82,36300
2826,ŠARONJE,82,36305
2827,ŠTITARE,82,36314
2828,BASTAV,191,14253
2829,BELOTIĆ,191,14253
2831,BRATAČIĆ,191,14253
2832,GORNJE CRNILJEVO,191,14253
2833,GUNJACI,191,14207
2834,DRAGIJEVICA,191,14253
2835,DRAGODOL,191,14207
2836,KOMIRIĆ,191,14254
2837,KONJIC,191,14207
2838,KONJUŠA,191,14254
2839,LOPATANJ,191,14253
2840,OSEČINA (VAROŠICA),191,14253
2841,OSEČINA (SELO),191,14253
2842,OSTRUŽANJ,191,14253
2843,PECKA,191,14207
2844,PLUŽAC,191,14253
2845,SIRDIJA,191,14253
2846,SKADAR,191,14207
2847,TUĐIN,191,14253
2848,CARINA,191,14207
2849,BOŠNJANE,83,35254
2850,BULJANE,83,35254
2851,BUSILOVAC,83,35249
2852,GLAVICA,83,35250
2853,GOLUBOVAC,83,35249
2854,GORNJA MUTNICA,83,35255
2855,GORNJE VIDOVO,83,35258
2856,DAVIDOVAC,83,35250
2857,DONJA MUTNICA,83,35255
2858,DONJE VIDOVO,83,35258
2859,DRENOVAC,83,35257
2860,ZABREGA,83,35254
2861,IZVOR,83,35255
2862,KLAČEVICA,83,35255
2863,KREŽBINAC,83,35249
2864,LEBINA,83,35250
2865,LEŠJE,83,35255
2866,MIRILOVAC,83,35250
2867,PARAĆIN,83,35250
2868,PLANA,83,35247
2869,POPOVAC,83,35254
2870,POTOČAC,83,35207
2871,RATARE,83,35256
2872,RAŠEVICA,83,35206
2873,SVOJNOVO,83,35259
2874,SIKIRICA,83,35256
2875,SINJI VIR,83,35248
2876,SISEVAC,83,35234
2877,STRIŽA,83,35250
2878,STUBICA,83,35246
2879,TEKIJA,83,35250
2880,TREŠNJEVICA,83,35248
2881,ČEPURE,83,35250
2882,ŠAVAC,83,35250
2883,ŠALUDOVAC,83,35254
2884,BISTRICA,84,12306
2885,BOŠNJAK,84,12300
2886,BUROVAC,84,12307
2887,BUSUR,84,12309
2888,VEZIČEVO,84,12309
2889,VELIKI POPOVAC,84,12315
2890,VELIKO LAOLE,84,12300
2891,VITOVNICA,84,12305
2892,VOŠANOVAC,84,12308
2893,DOBRNJE,84,12308
2894,DUBOČKA,84,12304
2895,ŽDRELO,84,12309
2896,ZABRĐE,84,12300
2897,KAMENOVO,84,12300
2898,KLADUROVO,84,12304
2899,KNEŽICA,84,12300
2900,KRVIJE,84,12300
2901,LESKOVAC,84,12300
2902,LOPUŠNIK,84,12300
2903,MALO LAOLE,84,12306
2904,MANASTIRICA,84,12304
2905,MELNICA,84,12305
2906,OREŠKOVICA,84,12308
2907,ORLJEVO,84,12315
2908,PANKOVO,84,12300
2909,PETROVAC,84,12300
2910,RANOVAC,84,12304
2911,RAŠANAC,84,12315
2912,STAMNICA,84,12300
2913,STARČEVO,84,12304
2914,TABANOVAC,84,12307
2915,TRNOVČE,84,12300
2916,ĆOVDIN,84,12309
2917,ŠETONJE,84,12309
2918,BAZOVIK,192,18355
2919,BARJE ČIFLIK,192,18300
2920,BASARA,192,18307
2921,BELA,192,18300
2922,BERILOVAC,192,18300
2923,BEROVICA,192,18300
2924,BLATO,192,18300
2925,BRLOG,192,18306
2926,VELIKA LUKANJA,192,NULL
2927,VELIKI JOVANOVAC,192,18307
2928,VELIKI SUVODOL,192,18300
2929,VELIKO SELO,192,18307
2930,VISOČKA RŽANA,192,18306
2931,VLASI,192,18322
2932,VOJNEGOVAC,192,18322
2933,VRANIŠTE,192,18304
2934,GNJILAN,192,18309
2935,GORNJA DRŽINA,192,18322
2936,GOSTUŠA,192,18300
2937,GRADAŠNICA,192,18300
2938,GRADIŠTE,192,18322
2939,DOBRI DO,192,18300
2940,DOJKINCI,192,18306
2941,DRŽINA,192,18328
2942,ZASKOVCI,192,18355
2943,IZVOR,192,18300
2944,JALBOTINA,192,18322
2945,JELOVICA,192,18306
2946,KAMIK,192,18300
2947,KOPRIVŠTICA,192,18300
2948,KOSTUR,192,18300
2949,KRUPAC,192,18307
2950,KUMANOVO,192,18304
2952,MALI JOVANOVAC,192,18307
2953,MALI SUVODOL,192,18300
2954,MILOJKOVAC,192,18322
2955,MIRKOVCI,192,18355
2956,NIŠOR,192,18300
2957,NOVI ZAVOJ,192,18300
2958,OBRENOVAC,192,18322
2959,OREOVICA,192,18355
2960,ORLJA,192,18355
2961,OSMAKOVO,192,18304
2962,PAKLEŠTICA,192,18300
2963,PASJAČ,192,18300
2964,PETROVAC,192,18328
2965,PIROT,192,18300
2966,PLANINICA,192,18320
2967,POKREVENIK,192,18300
2968,POLJSKA RŽANA,192,18328
2969,PONOR,192,18300
2970,PRISJAN,192,18300
2971,RAGODEŠ,192,18355
2972,RASNICA,192,18300
2973,ROSOMAČ,192,18306
2974,RSOVCI,192,18306
2975,RUDINJE,192,18355
2976,SINJA GLAVA,192,18300
2977,SLAVINJA,192,18324
2978,SOPOT,192,18355
2979,SREĆKOVAC,192,18322
2980,STANIČENJE,192,18304
2981,SUKOVO,192,18322
2982,TEMSKA,192,18355
2983,TOPLI DO,192,18355
2984,TRNJANA,192,18307
2985,CEREV DEL,192,18300
2986,CEROVA,192,18355
2987,CRVENČEVO,192,18304
2988,CRNOKLIŠTE,192,18304
2989,ČINIGLAVCI,192,18322
2990,ŠUGRIN,192,18355
2991,BARE,85,12312
2992,BATOVAC,85,12207
2993,BERANJE,85,12221
2994,BRADARAC,85,12206
2995,BRATINAC,85,12206
2996,BREŽANE,85,12000
2997,BUBUŠINAC,85,12206
2998,DRAGOVAC,85,12000
2999,DRMNO,85,12208
3000,DUBRAVICA,85,12207
3001,ŽIVICA,85,12000
3002,KASIDOL,85,12312
3003,KLENOVNIK,85,12208
3004,KLIČEVAC,85,12209
3005,KOSTOLAC,85,12208
3006,LUČICA,85,12000
3007,MALJUREVAC,85,12206
3008,NABRĐE,85,12206
3009,OSTROVO,85,12208
3010,PETKA,85,12208
3011,POŽAREVAC,85,12000
3012,POLJANA,85,12372
3013,PRUGOVO,85,12372
3014,REČICA,85,12209
3015,STARI KOSTOLAC,85,12208
3016,TRNJANE,85,12206
3017,ĆIRIKOVAC,85,12000
3018,BAKIONICA,86,31210
3019,VELIKA JEŽEVICA,86,31213
3020,VISIBABA,86,31210
3021,VRANJANI,86,31210
3022,GLUMAČ,86,31210
3023,GODOVIK,86,31210
3024,GORNJA DOBRINJA,86,31214
3025,GOROBILJE,86,31210
3026,GUGALJ,86,31215
3027,DONJA DOBRINJA,86,31214
3028,DRAŽINOVIĆI,86,31213
3029,DUŠKOVCI,86,31213
3030,ZASELJE,86,31213
3031,ZDRAVČIĆI,86,31210
3032,JELEN DO,86,31215
3033,KALENIĆI,86,31213
3034,LOPAŠ,86,31210
3035,LORET,86,31215
3036,LJUTICE,86,31213
3037,MAĐER,86,31213
3038,MALA JEŽEVICA,86,31213
3039,MILIĆEVO SELO,86,31210
3040,MRŠELJI,86,31213
3041,OTANJ,86,31210
3042,PAPRATIŠTE,86,31215
3043,PILATOVIĆI,86,31210
3044,POŽEGA,86,31210
3045,PRIJANOVIĆI,86,31210
3046,PRILIPAC,86,31210
3047,RADOVCI,86,31210
3048,RASNA,86,31210
3049,REČICE,86,31237
3050,ROGE,86,31237
3051,RUPELJEVO,86,31237
3052,SVRAČKOVO,86,31237
3053,SREDNJA DOBRINJA,86,31214
3054,TABANOVIĆI,86,31215
3055,TVRDIĆI,86,31210
3056,TOMETINO POLJE,86,31213
3057,TUČKOVO,86,31215
3058,UZIĆI,86,31210
3059,ČESTOBRODICA,86,31213
3060,ALIĐERCE,193,17523
3061,BERČEVAC,193,17523
3062,BUJIĆ,193,17523
3063,BUKOVAC,193,17523
3064,BUKAREVAC,193,17523
3065,BUŠTRANJE,193,17522
3066,GARE,193,17523
3067,GOLEMI DOL,193,17523
3068,GORNJA ŠUŠAJA,193,17523
3069,GOSPOĐINCE,193,17523
3070,DEPCE,193,17523
3071,DONJA ŠUŠAJA,193,17523
3072,ŽUJINCE,193,17523
3073,ILINCE,193,17523
3074,KURBALIJA,193,17523
3075,LJANIK,193,17523
3076,MAĐARE,193,17523
3077,MIRATOVAC,193,17523
3078,NORČA,193,17523
3079,ORAOVICA,193,17523
3080,PEČENO,193,17523
3081,PREŠEVO,193,17523
3082,RAJINCE,193,17523
3083,RANATOVCE,193,17523
3084,RELJAN,193,17523
3085,SVINJIŠTE,193,17523
3086,SEFER,193,17523
3087,SLAVUJEVAC,193,17523
3088,STANEVCE,193,17523
3089,STREZOVCE,193,17523
3090,TRNAVA,193,17523
3091,CAKANOVAC,193,17523
3092,CEREVAJKA,193,17523
3093,CRNOTINCE,193,17523
3094,ČUKARKA,193,17523
3095,BANJA,87,31330
3096,BATKOVIĆI,87,31335
3097,BREZNA,87,31337
3098,BUČJE,87,31335
3099,DOBRILOVIĆI,87,31330
3100,ŽIVINICE,87,31333
3101,ZABRĐE,87,31333
3102,ZABRNJICA,87,31335
3103,ZAGRADINA,87,31335
3104,ZAOSTRO,87,31335
3105,JELAČA,87,31337
3106,KALAFATI,87,31330
3107,KALUĐEROVIĆI,87,31335
3108,KASIDOLI,87,31335
3109,KRATOVO,87,31337
3110,KRNJAČA,87,31335
3111,KUKUROVIĆI,87,31335
3112,MAŽIĆI,87,31330
3113,MILIJEŠ,87,31330
3114,PLAŠĆE,87,31335
3115,POŽEGRMAC,87,31335
3116,PRIBOJ,87,31330
3117,PRIBOJSKA GOLEŠA,87,31330
3118,PRIBOJSKE ČELICE,87,31337
3119,RAČA,87,31330
3120,RITOŠIĆI,87,31335
3121,SJEVERIN,87,31333
3122,SOČICE,87,31335
3123,STRMAC,87,31333
3124,HERCEGOVAČKA GOLEŠA,87,31335
3125,CRNUGOVIĆI,87,31335
3126,CRNUZI,87,31330
3127,ČITLUK,87,31330
3128,ALJINOVIĆI,211,31307
3129,BALIĆI,211,31305
3130,BARE,211,31305
3131,BISKUPIĆI,211,31307
3132,BJELAHOVA,211,31305
3133,BRAJKOVAC,211,31305
3134,BRVINE,211,31305
3135,BRODAREVO,211,31305
3136,BUKOVIK,211,31305
3137,VINICKA,211,31300
3138,VRBOVO,211,31306
3139,GOJAKOVIĆI,211,31305
3140,GORNJE BABINE,211,31306
3141,GORNJE GORAČIĆE,211,31307
3142,GORNJI STRANJANI,211,31305
3143,GOSTUN,211,31305
3144,GRAČANICA,211,31300
3145,GROBNICE,211,31305
3146,DIVCI,211,31300
3147,DONJE BABINE,211,31303
3148,DONJI STRANJANI,211,31305
3149,DRENOVA,211,31300
3150,DUŠMANIĆI,211,31300
3151,ĐURAŠIĆI,211,31300
3152,ZABRDNJI TOCI,211,31306
3153,ZAVINOGRAĐE,211,31305
3154,ZALUG,211,31300
3155,ZASTUP,211,31305
3156,ZVIJEZD,211,31303
3157,IVANJE,211,31300
3158,IVEZIĆI,211,31305
3159,IZBIČANJ,211,31300
3160,JABUKA,211,31306
3161,JUNČEVIĆI,211,31306
3162,KAMENA GORA,211,31306
3163,KARAULA,211,31307
3164,KAROŠEVINA,211,31303
3165,KAĆEVO,211,31300
3166,KAŠICE,211,31306
3167,KOVAČEVAC,211,31303
3168,KOPRIVNA,211,31305
3169,KOSATICA,211,31300
3170,KOŠEVINE,211,31300
3171,KRUŠEVO,211,31305
3172,KUČIN,211,31325
3173,LUČICE,211,31300
3174,MATARUGE,211,31305
3175,MEĐANI,211,31307
3176,MIJANI,211,31303
3177,MIJOSKA,211,31303
3178,MILAKOVIĆI,211,31305
3179,MILEŠEVO,211,31300
3180,MILOŠEV DO,211,31307
3181,MILJEVIĆI,211,31300
3182,MRČKOVINA,211,31305
3183,MUŠKOVINA,211,31307
3184,OROVAC,211,31303
3185,ORAŠAC,211,31305
3186,OSOJE,211,31303
3187,OŠTRA STIJENA,211,31305
3188,POTKRŠ,211,31305
3189,POTOK,211,31305
3190,PRAVOŠEVO,211,31307
3191,PRANJCI,211,31300
3192,PRIJEPOLJE,211,31300
3193,RASNO,211,31300
3194,RATAJSKA,211,31303
3195,SEDOBRO,211,31300
3196,SELJANE,211,31303
3197,SELJAŠNICA,211,31303
3198,SKOKUĆE,211,31303
3199,SLATINA,211,31305
3200,SOPOTNICA,211,31300
3201,TAŠEVO,211,31300
3202,HISARDŽIK,211,31300
3203,HRTA,211,31300
3204,CRKVENI TOCI,211,31300
3205,ČADINJE,211,31303
3206,ČAUŠEVIĆI,211,31303
3207,DŽUROVO,211,31325
3208,ARBANAŠKA,88,18409
3209,BABIN POTOK,88,18400
3210,BABOTINAC,88,18404
3211,BAJČINCE,88,18405
3212,BALINOVAC,88,18405
3213,BALČAK,88,18400
3214,BACE,88,18424
3215,BELA VODA,88,18400
3216,BELI KAMEN,88,18407
3217,BELOGOŠ,88,18404
3218,BELOLJIN,88,18424
3219,BERILJE,88,18400
3220,BOGUJEVAC,88,18407
3221,BREGOVINA,88,18407
3222,BRESNIK,88,18424
3223,BRESNIČIĆ,88,18423
3224,BUBLICA,88,18407
3225,BUKULORAM,88,18424
3226,BULATOVAC,88,18404
3227,BUČINCE,88,18400
3228,VELIKA PLANA,88,18403
3229,VIDOVAČA,88,18407
3230,VIČA,88,18424
3231,VLASOVO,88,18433
3232,VODICE,88,18400
3233,GLASOVIK,88,18407
3234,GOJINOVAC,88,18424
3235,GORNJA BEJAŠNICA,88,18424
3236,GORNJA BRESNICA,88,18403
3237,GORNJA KONJUŠA,88,18424
3238,GORNJA REČICA,88,18404
3239,GORNJA STRAŽAVA,88,18400
3240,GORNJA TOPONICA,88,18424
3241,GORNJA TRNAVA,88,18404
3242,GORNJE KORDINCE,88,18405
3243,GORNJI STATOVAC,88,18407
3244,GRABOVAC,88,18424
3245,GUBETIN,88,18423
3246,DOBROTIĆ,88,18400
3247,DONJA BEJAŠNICA,88,18424
3248,DONJA BRESNICA,88,18403
3249,DONJA KONJUŠA,88,18424
3250,DONJA REČICA,88,18404
3251,DONJA STRAŽAVA,88,18400
3252,DONJA TOPONICA,88,18423
3253,DONJA TRNAVA,88,18421
3254,DONJE KORDINCE,88,18405
3255,DONJI STATOVAC,88,18407
3256,DRAGI DEO,88,18407
3257,DRENOVAC,88,18423
3258,ĐUROVAC,88,18400
3259,ĐUŠNICA,88,18424
3260,ŽITNI POTOK,88,18407
3261,ZDRAVINJE,88,18403
3262,ZLATA,88,18407
3263,JABUČEVO,88,18407
3264,JOVINE LIVADE,88,18407
3265,JUGOVAC,88,18404
3266,KALUDRA,88,18424
3267,KLISURICA,88,18405
3268,KOŽINCE,88,18407
3269,KONČIĆ,88,18403
3270,KONDŽELJ,88,18424
3271,KOSTENICA,88,18405
3272,KRNJI GRAD,88,18403
3273,KRUŠEVICA,88,18409
3274,MAĐERE,88,18424
3275,MALA PLANA,88,18423
3276,MAČINA,88,18407
3277,MEROVAC,88,18403
3278,MIKULOVAC,88,18405
3279,MILJKOVICA,88,18423
3280,MRLJAK,88,18407
3281,MRŠELJ,88,18403
3282,NOVA BOŽURNA,88,18400
3283,NOVI ĐUROVAC,88,18407
3284,NOVO SELO,88,18400
3285,OBRTINCE,88,18409
3286,PASJAČA,88,18407
3287,PAŠINAC,88,18404
3288,PESTIŠ,88,18409
3289,PETROVAC,88,18405
3290,PISKALJE,88,18424
3291,PLOČNIK,88,18424
3292,POTOČIĆ,88,18423
3293,PREKADIN,88,18424
3294,PREKAŠNICA,88,18424
3295,PREKOPUCE,88,18403
3296,PROKUPLJE,88,18400
3297,RANKOVA REKA,88,18407
3298,RASTOVNICA,88,18400
3299,RGAJE,88,18409
3300,RELJINAC,88,18404
3301,RESINAC,88,18423
3302,SELIŠTE,88,18400
3303,SMRDAN,88,18424
3304,SREDNJI STATOVAC,88,18407
3305,STARI ĐUROVAC,88,18407
3306,STARO SELO,88,18407
3307,TOVRLJANE,88,18409
3308,TRNOVI LAZ,88,18409
3309,TULARE,88,18424
3310,ĆUKOVAC,88,18400
3311,DŽIGOLJ,88,18405
3312,ŠEVIŠ,88,18407
3313,ŠIROKE NJIVE,88,18409
3314,ŠIŠMANOVAC,88,18424
3315,BRALJINA,194,37215
3316,VAROŠ,194,37215
3317,VITOŠEVAC,194,37213
3318,GRABOVO,194,37213
3319,LIPOVAC,194,37215
3320,MAĐERE,194,37215
3321,MALETINA,194,37202
3322,MAĆIJA,194,37215
3323,NOVI BRAČIN,194,37216
3324,PARDIK,194,37213
3325,PODGORAC,194,37213
3326,POSLON,194,37215
3327,PRASKOVČE,194,37202
3328,PRETRKOVAC,194,37213
3329,RAŽANJ,194,37215
3330,RUJIŠTE,194,37215
3331,SKORICA,194,37213
3332,SMILOVAC,194,37213
3333,STARI BRAČIN,194,37216
3334,CEROVO,194,37215
3335,CRNI KAO,194,37215
3336,ČUBURA,194,37215
3337,ŠETKA,194,37213
3338,ADROVAC,89,34210
3339,BORCI,89,34215
3340,BOŠNJANE,89,34210
3341,VELIKO KRČMARE,89,34212
3342,VIŠEVAC,89,34210
3343,VOJINOVAC,89,34212
3344,VUČIĆ,89,34210
3345,DONJA RAČA,89,34210
3346,DONJE JARUŠICE,89,34215
3347,ĐURĐEVO,89,34215
3348,MALO KRČMARE,89,34212
3349,MIRAŠEVAC,89,34210
3350,POPOVIĆ,89,34210
3351,RAČA,89,34210
3352,SARANOVO,89,34215
3353,SEPCI,89,34215
3354,SIPIĆ,89,34213
3355,TRSKA,89,34210
3356,BADANJ,90,36350
3357,BALJEVAC,90,36344
3358,BELA STENA,90,36344
3359,BELO POLJE,90,36350
3360,BEOCI,90,36350
3361,BILJANOVAC,90,36344
3362,BINIĆE,90,36346
3363,BIOČIN,90,36350
3364,BOROVIĆE,90,36350
3365,BOĆE,90,36345
3366,BRVENIK,90,36346
3367,BRVENIK NASELJE,90,36346
3368,BRVENICA,90,36346
3369,VAREVO,90,36350
3370,VOJMILOVIĆI,90,36345
3371,VRTINE,90,36350
3372,GNJILICA,90,36350
3373,GOSTIRADIĆE,90,36346
3374,GRADAC,90,36346
3375,DRAGANIĆI,90,36350
3376,ŽERAĐE,90,36344
3377,ŽUTICE,90,36346
3378,ZAREVO,90,36346
3379,JOŠANIČKA BANJA,90,36345
3380,KAZNOVIĆE,90,36350
3381,KARADAK,90,36350
3382,KOVAČI,90,36345
3383,KOPAONIK,90,36354
3384,KORLAĆE,90,36346
3385,KRAVIĆE,90,36350
3386,KREMIĆE,90,36346
3387,KRUŠEVICA,90,36346
3388,KURIĆI,90,36344
3389,KUĆANE,90,36350
3390,LISINA,90,36350
3391,LUKOVO,90,36350
3392,MILATKOVIĆE,90,36350
3393,MURE,90,36350
3394,NOVO SELO,90,36350
3395,NOSOLJIN,90,36350
3396,ORAHOVO,90,36350
3397,PAVLICA,90,36346
3398,PANOJEVIĆE,90,36350
3399,PISKANJA,90,36344
3400,PLAVKOVO,90,36350
3401,PLEŠIN,90,36350
3402,POBRĐE,90,36344
3403,POKRVENIK,90,36344
3404,POCESJE,90,36350
3405,RADOŠIĆE,90,36350
3406,RAKOVAC,90,36345
3407,RAŠKA,90,36350
3408,RVATI,90,36350
3409,RUDNICA,90,36350
3410,SEBIMILJE,90,36350
3411,SEMETEŠ,90,36350
3412,SUPNJE,90,36350
3413,TIODŽE,90,36350
3414,TRNAVA,90,36350
3415,CRNA GLAVA,90,36345
3416,ŠIPAČINA,90,36350
3417,BARE,195,35260
3418,BELUŠIĆ,195,35263
3419,BEOČIĆ,195,35263
3420,BOGALINAC,195,35265
3421,BRAJINOVAC,195,35263
3422,VELIKA KRUŠEVICA,195,35260
3423,VUKMANOVAC,195,35274
3424,DOBROSELICA,195,35265
3425,DRAGOVO,195,35265
3426,ŽUPANJEVAC,195,35265
3427,KAVADAR,195,35260
3428,KALENIĆKI PRNJAVOR,195,35264
3429,KALUDRA,195,35265
3430,KOMARANE,195,35260
3431,LEPOJEVIĆ,195,35267
3432,LOMNICA,195,35260
3433,LOĆIKA,195,35274
3434,MALEŠEVO,195,35265
3435,MOTRIĆ,195,35260
3436,NADRLJE,195,35265
3437,OPARIĆ,195,35267
3438,PREVEŠT,195,35264
3439,RABENOVAC,195,35274
3440,RATKOVIĆ,195,35260
3441,REKOVAC,195,35260
3442,SEKURIČ,195,35263
3443,SIBNICA,195,35265
3444,SILJEVICA,195,35260
3445,TEČIĆ,195,35260
3446,URSULE,195,35260
3447,CIKOT,195,35260
3448,ŠLJIVICA,195,35264
3449,BAGRDAN,91,35204
3450,BELICA,91,35273
3451,BRESJE,91,35000
3452,BUKOVČE,91,35000
3453,BUNAR,91,35273
3454,VINORAČA,91,35000
3455,VOLJAVČE,91,35000
3456,VRANOVAC,91,35000
3457,VRBA,91,35273
3458,GLAVINCI,91,35261
3459,GLOGOVAC,91,35222
3460,GORNJE ŠTIPLJE,91,35000
3461,GORNJI RAČNIK,91,35204
3462,DEONICA,91,35203
3463,DOBRA VODA,91,35218
3464,DONJE ŠTIPLJE,91,35000
3465,DONJI RAČNIK,91,35204
3466,DRAGOCVET,91,35272
3467,DRAGOŠEVAC,91,35262
3468,DRAŽMIROVAC,91,35222
3469,DUBOKA,91,35218
3470,IVKOVAČKI PRNJAVOR,91,35262
3471,JOŠANIČKI PRNJAVOR,91,35203
3472,KALENOVAC,91,35203
3473,KOVAČEVAC,91,35272
3474,KOLARE,91,35242
3475,KONČAREVO,91,35219
3476,KOČINO SELO,91,35220
3477,LOVCI,91,35204
3478,LOZOVIK,91,35000
3479,LUKAR,91,35273
3480,MAJUR,91,35270
3481,MALI POPOVIĆ,91,35222
3482,MEDOJEVAC,91,35262
3483,MEĐUREČ,91,35000
3484,MILOŠEVO,91,35268
3485,MIŠEVIĆ,91,35000
3486,NOVO LANIŠTE,91,35000
3487,RAJKINAC,91,35218
3488,RAKITOVO,91,35219
3489,RIBARE,91,35220
3490,RIBNIK,91,35000
3491,JAGODINA,91,35000
3492,SIOKOVAC,91,35203
3493,SLATINA,91,35273
3494,STARO LANIŠTE,91,35000
3495,STARO SELO,91,35273
3496,STRIŽILO,91,35204
3497,TOPOLA,91,35262
3498,TRNAVA,91,35000
3499,CRNČE,91,35203
3500,ŠANTAROVAC,91,35273
3501,ŠULJKOVAC,91,35272
3502,BOBOVO,92,35217
3503,BRESJE,92,35208
3504,VOJSKA,92,35208
3505,VRLANE,92,35210
3506,GLOŽANE,92,35210
3507,GRABOVAC,92,35210
3508,DUBLJE,92,35210
3509,DUBNICA,92,35217
3510,ĐURINAC,92,35211
3511,KUPINOVAC,92,35211
3512,KUŠILJEVO,92,35226
3513,LUKOVICA,92,35210
3514,MAČEVAC,92,35208
3515,PROŠTINAC,92,35217
3516,RADOŠIN,92,35208
3517,ROANDA,92,35209
3518,ROĆEVAC,92,35211
3519,SVILAJNAC,92,35210
3520,SEDLARE,92,35211
3521,SUBOTICA,92,35209
3522,TROPONJE,92,35211
3523,CRKVENAC,92,35210
3524,BELOINJE,93,18360
3525,BURDIMO,93,18368
3526,BUČUM,93,18368
3527,VAROŠ,93,18363
3528,VLAHOVO,93,18208
3529,GALIBABINAC,93,18201
3530,GOJMANOVAC,93,18201
3531,GRBAVČE,93,18201
3532,GULIJAN,93,18208
3533,GUŠEVAC,93,18208
3534,DAVIDOVAC,93,18201
3535,DRAJINAC,93,18360
3536,ĐURINAC,93,18360
3537,ŽELJEVO,93,18360
3538,IZVOR,93,18360
3539,KOPAJKOŠARA,93,18201
3540,LABUKOVO,93,18201
3541,LALINAC,93,18201
3542,LOZAN,93,18208
3543,LUKOVO,93,18208
3544,MANOJLICA,93,18208
3545,MERDŽELAT,93,18360
3546,MEČJI DO,93,18363
3547,NIŠEVAC,93,18366
3548,OKOLIŠTE,93,18368
3549,OKRUGLICA,93,18360
3550,PALILULA,93,18363
3551,PERIŠ,93,18208
3552,PIRKOVAC,93,18201
3553,PLUŽINA,93,18366
3554,POPŠICA,93,18201
3555,PREKONOGA,93,18365
3556,RADMIROVAC,93,18201
3557,RIBARE,93,18360
3558,SVRLJIG,93,18360
3559,SLIVJE,93,18201
3560,TIJOVAC,93,18368
3561,CRNOLJEVICA,93,18360
3562,ŠLJIVOVIK,93,18360
3563,ALIVEROVIĆE,196,36312
3564,BAGAČIĆE,196,36310
3565,BARE,196,36315
3566,BAČIJA,196,36310
3567,BIOC,196,36313
3568,BLATO,196,36315
3569,BOGUTI,196,36311
3570,BOŽOV POTOK,196,36310
3571,BOLJARE,196,36313
3572,BORIŠIĆE,196,36315
3573,BOROVIĆE,196,36310
3574,BREZA,196,36310
3575,BRNJICA,196,36312
3576,BUĐEVO,196,36313
3577,VAPA,196,36310
3578,VESKOVIĆE,196,36311
3579,VISOČKA,196,36315
3580,VIŠNJEVA,196,36315
3581,VIŠNJICE,196,36311
3582,VRAPCI,196,36312
3583,VRBNICA,196,36315
3584,VRSJENICE,196,36310
3585,GOLUBAN,196,36312
3586,GORNJE LOPIŽE,196,36310
3587,GOŠEVO,196,36315
3588,GRABOVICA,196,36310
3589,GRADAC,196,36311
3590,GRGAJE,196,36315
3591,DOLIĆE,196,36313
3592,DONJE GORAČIĆE,196,36310
3593,DONJE LOPIŽE,196,36310
3594,DRAGOJLOVIĆE,196,36311
3595,DRAŽEVIĆE,196,36312
3596,DRUŽINIĆE,196,36310
3597,DUBNICA,196,36310
3598,DUGA POLJANA,196,36312
3599,DUJKE,196,36310
3600,DUNIŠIĆE,196,36310
3601,ŽABREN,196,36312
3602,ŽITNIĆE,196,36312
3603,ZABRĐE,196,36312
3604,ZAJEČIĆE,196,36310
3605,ZAHUMSKO,196,36315
3606,JEVIK,196,36310
3607,JEZERO,196,36315
3608,KALIPOLJE,196,36310
3609,KAMEŠNICA,196,36312
3610,KANJEVINA,196,36310
3611,KARAJUKIĆA BUNARI,196,36313
3612,KIJEVCI,196,36310
3613,KLADNICA,196,36310
3614,KNEŽEVAC,196,36311
3615,KOZNIK,196,36312
3616,KOKOŠIĆE,196,36311
3617,KRAJINOVIĆE,196,36315
3618,KRIVAJA,196,36310
3619,KRNJA JELA,196,36313
3620,KRSTAC,196,36310
3621,KRĆE,196,36310
3622,LIJEVA REKA,196,36312
3623,LJUTAJE,196,36312
3624,MAŠOVIĆE,196,36310
3625,MEDARE,196,36310
3626,MEĐUGOR,196,36312
3627,MILIĆI,196,36312
3628,PAPIĆE,196,36310
3629,PETROVO POLJE,196,36312
3630,PLANA,196,36315
3631,PODA,196,36313
3632,PONORAC,196,36310
3633,PRALJA,196,36310
3634,RAŽDAGINJA,196,36310
3635,RASNO,196,36312
3636,RASPOGANČE,196,36311
3637,RASTENOVIĆE,196,36313
3638,RAŠKOVIĆE,196,36312
3639,SJENICA,196,36310
3640,SKRADNIK,196,36310
3641,STRAJINIĆE,196,36310
3642,STUP,196,36311
3643,SUGUBINE,196,36310
3644,SUŠICA,196,36312
3645,TREŠNJEVICA,196,36315
3646,TRIJEBINE,196,36310
3647,TUZINJE,196,36313
3648,TUTIĆE,196,36315
3649,UVAC,196,36310
3650,UGAO,196,36313
3651,URSULE,196,36310
3652,UŠAK,196,36310
3653,FIJULJ,196,36310
3654,CARIČINA,196,36310
3655,CETANOVIĆE,196,36312
3656,CRVSKO,196,36315
3657,CRČEVO,196,36312
3658,ČEDOVO,196,36310
3659,ČIPALJE,196,36310
3660,ČITLUK,196,36312
3661,ŠARE,196,36312
3662,ŠTAVALJ,196,36311
3663,ŠUŠURE,196,36310
3664,BADLJEVICA,212,11432
3665,BINOVAC,212,11431
3666,VODANJ,212,11328
3667,VRANOVO,212,11311
3668,VRBOVAC,212,11312
3669,VUČAK,212,11300
3670,DOBRI DO,212,11312
3671,DRUGOVAC,212,11432
3672,KOLARI,212,11431
3673,LANDOL,212,11431
3674,LIPE,212,11310
3675,LUGAVČINA,212,11321
3676,LUNJEVAC,212,11431
3677,MALA KRSNA,212,11313
3678,MALO ORAŠJE,212,11328
3679,MIHAJLOVAC,212,11312
3680,OSIPAONICA,212,11314
3681,PETRIJEVO,212,11300
3682,RADINAC,212,11311
3683,RALJA,212,11311
3684,SARAORCI,212,11315
3685,SEONE,212,11300
3686,SKOBALJ,212,11322
3687,SMEDEREVO,212,11300
3688,SUVODOL,212,11431
3689,UDOVICE,212,11300
3690,ŠALINAC,212,11300
3691,AZANJA,94,11423
3692,BANIČINA,94,11420
3693,BAČINAC,94,11407
3694,BAŠIN,94,11420
3695,VLAŠKI DO,94,11423
3696,VODICE,94,11420
3697,GLIBOVAC,94,11420
3698,GOLOBOK,94,11316
3699,GRČAC,94,11420
3700,KUSADAK,94,11425
3701,MALA PLANA,94,11420
3702,MRAMORAC,94,11420
3703,PRIDVORICE,94,11420
3704,RATARI,94,11411
3705,SELEVAC,94,11407
3706,SMEDEREVSKA PALANKA,94,11420
3707,STOJAČAK,94,11420
3708,CEROVAC,94,11420
3709,BELI POTOK,197,18230
3710,BLENDIJA,197,18230
3711,BOGDINAC,197,18232
3712,VRBOVAC,197,18230
3713,VRMDŽA,197,18236
3714,DUGO POLJE,197,18230
3715,ŽUČKOVAC,197,18230
3716,JEZERO,197,18230
3717,JOŠANICA,197,18230
3718,LEVOVIK,197,18232
3719,MILUŠINAC,197,18232
3720,MUŽINAC,197,18236
3721,NIKOLINAC,197,18230
3722,NOVO SELO,197,18230
3723,PORUŽNICA,197,18230
3724,RADENKOVAC,197,18230
3725,RESNIK,197,18230
3726,RUJEVICA,197,18230
3727,SESALAC,197,18232
3728,SOKOBANJA,197,18230
3729,TRGOVIŠTE,197,18236
3730,TRUBAREVAC,197,18230
3731,CEROVICA,197,18232
3732,ČITLUK,197,18232
3733,ŠARBANOVAC,197,18236
3734,ALAKINCE,95,17530
3735,BACIJEVCE,95,17530
3736,BINOVCE,95,17530
3737,BITVRĐA,95,17530
3738,BOŽICA,95,17537
3739,VLASINA OKRUGLICA,95,17532
3740,VLASINA RID,95,17532
3741,VLASINA STOJKOVIĆEVA,95,17535
3742,VUČADELCE,95,17530
3743,GORNJE ROMANOVCE,95,17530
3744,GROZNATOVCI,95,17535
3745,DANJINO SELO,95,17530
3746,DIKAVA,95,17530
3747,DONJE ROMANOVCE,95,17530
3748,DRAJINCI,95,17535
3749,DUGI DEL,95,17530
3750,DUGOJNICA,95,17530
3751,ZAGUŽANJE,95,17530
3752,JELAŠNICA,95,17512
3753,KALABOVCE,95,17530
3754,KIJEVAC,95,17530
3755,KLISURA,95,17535
3756,KOLUNICA,95,NULL
3757,KOSTROŠEVCI,95,17535
3758,LESKOVA BARA,95,17530
3759,MASURICA,95,17530
3760,MAČKATICA,95,17530
3761,NOVO SELO,95,17530
3762,PALJA,95,17535
3763,RĐAVICA,95,17512
3764,STAJKOVCE,95,17530
3765,STREZIMIROVCI,95,17535
3766,SUVOJNICA,95,17530
3767,SURDULICA,95,17530
3768,SUHI DOL,95,17535
3769,TOPLI DO,95,17530
3770,TOPLI DOL,95,17537
3771,TROSKAČ,95,17530
3772,ĆURKOVICA,95,17530
3773,BIOSKA,96,31241
3774,BJELOTIĆI,96,31203
3775,BUAR,96,31102
3776,VITASI,96,31242
3777,VOLUJAC,96,31102
3778,VRUTCI,96,31241
3779,GORJANI,96,31205
3780,GOSTINICA,96,31204
3781,GUBIN DO,96,31204
3782,DOBRODO,96,31203
3783,DREŽNIK,96,31206
3784,DRIJETANJ,96,31311
3785,DUBOKO,96,31102
3786,ZBOJŠTICA,96,31311
3787,ZLAKUSA,96,31205
3788,KAMENICA,96,31203
3789,KARAN,96,31204
3790,KAČER,96,31311
3791,KESEROVINA,96,31241
3792,KOTROMAN,96,31243
3793,KRVAVCI,96,31205
3794,KREMNA,96,31242
3795,KRŠANJE,96,31243
3796,LELIĆI,96,31204
3797,LJUBANJE,96,31311
3798,MOKRA GORA,96,31243
3799,NIKOJEVIĆI,96,31206
3800,PANJAK,96,31243
3801,PEAR,96,31241
3802,PONIKOVICA,96,31203
3803,POTOČANJE,96,31205
3804,POTPEĆE,96,31205
3805,RAVNI,96,31206
3806,RADUŠA,96,31242
3807,RIBAŠEVINA,96,31204
3808,SEVOJNO,96,31103
3809,SKRŽUTI,96,31206
3810,STAPARI,96,31102
3811,STRMAC,96,31242
3812,UŽICE,96,31102
3813,TRNAVA,96,31204
3814,BELOSAVCI,97,34312
3815,BLAZNAVA,97,34314
3816,BOŽURNJA,97,34310
3817,VINČA,97,34314
3818,VOJKOVCI,97,34318
3819,GORNJA TRNAVA,97,34324
3820,GORNJA ŠATORNJA,97,34314
3821,GOROVIČ,97,34310
3822,GURIŠEVCI,97,34318
3823,DONJA TREŠNJEVICA,97,34314
3824,DONJA TRNAVA,97,34324
3825,DONJA ŠATORNJA,97,34314
3826,ŽABARE,97,34310
3827,ZAGORICA,97,34312
3828,JARMENOVCI,97,34318
3829,JELENAC,97,34312
3830,JUNKOVAC,97,34313
3831,KLOKA,97,34313
3832,KRĆEVAC,97,34310
3833,LIPOVAC,97,34310
3834,MANOJLOVCI,97,34318
3835,MASKAR,97,34312
3836,NATALINCI,97,34313
3837,OVSIŠTE,97,34310
3838,PAVLOVAC,97,34313
3839,PLASKOVAC,97,34314
3840,RAJKOVAC,97,34312
3841,SVETLIĆ,97,34324
3842,TOPOLA (VAROŠICA),97,34310
3843,TOPOLA (SELO),97,34310
3844,ŠUME,97,34313
3845,BABINA POLJANA,198,17561
3846,BARBACE,198,17525
3847,VLADOVCE,198,17525
3848,GOLOČEVAC,198,17526
3849,GORNOVAC,198,17525
3850,GORNJA TRNICA,198,17525
3851,GORNJI KOZJI DOL,198,17525
3852,GORNJI STAJEVAC,198,17526
3853,DEJANCE,198,17525
3854,DONJA TRNICA,198,17525
3855,DONJI KOZJI DOL,198,17525
3856,DONJI STAJEVAC,198,17526
3857,DUMBIJA,198,17525
3858,ĐEREKARCE,198,17525
3859,ZLADOVCE,198,17525
3860,KALOVO,198,17525
3861,LESNICA,198,17525
3862,MALA REKA,198,17525
3863,MARGANCE,198,17525
3864,MEZDRAJA,198,17525
3865,NOVI GLOG,198,17526
3866,NOVO SELO,198,17525
3867,PETROVAC,198,17525
3868,PROLESJE,198,17561
3869,RADOVNICA,198,17561
3870,RAJČEVCE,198,17525
3871,SURLICA,198,17526
3872,TRGOVIŠTE,198,17525
3873,CRVENI GRAD,198,17561
3874,CRNA REKA,198,17561
3875,CRNOVCE,198,17525
3876,ŠAJINCE,198,17525
3877,ŠAPRANCE,198,17525
3878,ŠIROKA PLANINA,198,17525
3879,ŠUMATA TRNICA,198,17525
3880,BOGDANJE,98,37240
3881,BOŽUREVAC,98,37246
3882,BREZOVICA,98,37240
3883,BRESNO POLJE,98,37242
3884,BUČJE,98,37243
3885,VELIKA DRENOVA,98,37245
3886,VELUĆE,98,37242
3887,GOLUBOVAC,98,37242
3888,GORNJA OMAŠNICA,98,37242
3889,GORNJA CRNIŠAVA,98,37243
3890,GORNJI DUBIČ,98,37240
3891,GORNJI RIBNIK,98,37243
3892,GRABOVAC,98,37240
3893,DONJA OMAŠNICA,98,37242
3894,DONJA CRNIŠAVA,98,37243
3895,DONJI DUBIČ,98,37240
3896,DONJI RIBNIK,98,37243
3897,DUBLJE,98,37240
3898,JASIKOVICA,98,37243
3899,KAMENJAČA,98,37243
3900,LEVIĆI,98,37242
3901,LOBODER,98,37240
3902,LOZNA,98,37240
3903,LOPAŠ,98,37243
3904,MALA DRENOVA,98,37246
3905,MALA SUGUBINA,98,37246
3906,MEDVEĐA,98,37244
3907,MIJAJLOVAC,98,37244
3908,MILUTOVAC,98,37246
3909,OKRUGLICA,98,37242
3910,OSAONICA,98,37240
3911,ODŽACI,98,37240
3912,PAJSAK,98,37242
3913,PLANINICA,98,37240
3914,POLJNA,98,37246
3915,POPINA,98,37240
3916,POČEKOVINA,98,37243
3917,PRNJAVOR,98,37240
3918,RAJINAC,98,37240
3919,RIĐEVŠTICA,98,37242
3920,RILJAC,98,37246
3921,RUJIŠNIK,98,37244
3922,SELIŠTE,98,37245
3923,STARI TRSTENIK,98,37242
3924,STOPANJA,98,37242
3925,STRAGARI,98,37245
3926,STUBLICA,98,37240
3927,TOBOLAC,98,37242
3928,TRSTENIK,98,37240
3929,UGLJAREVO,98,37240
3930,ČAIRI,98,37240
3931,ARAPOVIĆE,99,36307
3932,BALJEN,99,36307
3933,BATRAGE,99,36320
3934,BAĆICA,99,36307
3935,BIOHANE,99,36320
3936,BLACA,99,36321
3937,BOVANJ,99,36320
3938,BOROŠTICA,99,36320
3939,BRAĆAK,99,36320
3940,BREGOVI,99,36320
3941,BRNIŠEVO,99,36307
3942,BUJKOVIĆE,99,36320
3943,VELJE POLJE,99,36320
3944,VESENIĆE,99,36309
3945,VRAPČE,99,36309
3946,VRBA,99,36320
3947,GLOGOVIK,99,36307
3948,GLUHAVICA,99,36321
3949,GNILA,99,36320
3950,GODOVO,99,36320
3951,GORNJI CRNIŠ,99,36320
3952,GRADAC,99,36320
3953,GUJIĆE,99,36307
3954,GURDIJELJE,99,36307
3955,GUCEVIĆE,99,36307
3956,DEVREČ,99,36320
3957,DELIMEĐE,99,36307
3958,DETANE,99,36320
3959,DOBRI DUB,99,36320
3960,DOBRINJE,99,36320
3961,DOLOVO,99,36320
3962,DRAGA,99,36320
3963,DUBOVO,99,36320
3964,DULEBE,99,36320
3965,ĐEREKARE,99,36320
3966,ERVENICE,99,36320
3967,ŽIRČE,99,36321
3968,ŽUPA,99,36320
3969,ŽUČE,99,36309
3970,ZAPADNI MOJSTIR,99,36320
3971,IZROK,99,36309
3972,ISTOČNI MOJSTIR,99,36320
3973,JABLANICA,99,36309
3974,JAREBICE,99,36320
3975,JEZGROVIĆE,99,36309
3976,JELIĆE,99,36309
3977,JUŽNI KOČARNIK,99,36320
3978,KOVAČI,99,36321
3979,KONIČE,99,36320
3980,LESKOVA,99,36320
3981,LIPICA,99,36320
3982,LUKAVICA,99,36320
3983,MELAJE,99,36307
3984,MITROVA,99,36320
3985,MORANI,99,36307
3986,NABOJE,99,36320
3987,NADUMCE,99,36321
3988,NAMGA,99,36307
3989,NOĆAJE,99,36307
3990,ORAŠE,99,36309
3991,ORLJE,99,36309
3992,OSTROVICA,99,36320
3993,PALJEVO,99,36309
3994,PISKOPOVCE,99,36321
3995,PLENIBABE,99,36320
3996,POKRVENIK,99,36321
3997,POPE,99,36320
3998,POPIĆE,99,36309
3999,POTREB,99,36307
4000,PRUŽANJ,99,36307
4001,RADUHOVCE,99,36321
4002,RADUŠA,99,36320
4003,RAMOŠEVO,99,36320
4004,REŽEVIĆE,99,36320
4005,RIBARIĆE,99,36309
4006,RUDNICA,99,36320
4007,RUĐA,99,36321
4008,SAŠ,99,36320
4009,SEVERNI KOČARNIK,99,36320
4010,SMOLUĆA,99,36321
4011,STARČEVIĆE,99,36309
4012,STRUMCE,99,36309
4013,SUVI DO,99,36320
4014,TOČILOVO,99,36307
4015,TUTIN,99,36320
4016,ĆULIJE,99,36320
4017,CRKVINE,99,36321
4018,ČAROVINA,99,36307
4019,ČMANJKE,99,36309
4020,ČUKOTE,99,36307
4021,ŠARONJE,99,36320
4022,ŠIPČE,99,36320
4023,ŠPILJANI,99,36320
4024,BRALJINA,213,37215
4025,GRAD STALAĆ,213,37212
4026,LUČINA,213,37210
4027,MOJSINJE kod Kruševca,213,37202
4028,MRZENICA,213,37212
4029,PLOČNIK,213,37216
4030,POJATE,213,37214
4031,STALAĆ,213,37212
4032,TRUBAREVO,213,37202
4033,ĆIĆEVAC,213,37210
4034,BATINAC,199,35230
4035,BIGRENICA,199,35238
4036,VIRINE,199,35230
4037,VLAŠKA,199,35230
4038,DVORICA,199,35205
4039,IVANKOVAC,199,35230
4040,ISAKOVO,199,35227
4041,JOVAC,199,35205
4042,KOVANICA,199,35238
4043,KRUŠAR,199,35227
4044,MIJATOVAC,199,35236
4045,OSTRIKOVAC,199,35205
4046,PALJANE,199,35230
4047,SENJE,199,35233
4048,SUPSKA,199,35230
4049,ĆUPRIJA,199,35230
4050,BANJANI,100,14214
4051,BOGDANOVICA,100,14210
4052,BRGULE,100,14212
4053,BREZOVICA,100,14214
4054,VRELO,100,14214
4055,VRHOVINE,100,14210
4056,VUKONA,100,14214
4057,GVOZDENOVIĆ,100,14210
4058,GUNJEVAC,100,14210
4059,DOKMIR,100,14213
4060,ZVIZDAR,100,14210
4061,JOŠEVA,100,14210
4062,KALENIĆ,100,14212
4063,KALINOVAC,100,14214
4064,KOŽUAR,100,14214
4065,KRŠNA GLAVA,100,14213
4066,LISO POLJE,100,14212
4067,LONČANIK,100,14210
4068,MILORCI,100,14210
4069,MURGAŠ,100,14210
4070,NOVACI,100,14213
4071,PALJUVI,100,14210
4072,PAMBUKOVICA,100,14213
4073,RADLJEVO,100,14212
4074,RADUŠA,100,14213
4075,RUKLADA,100,14210
4076,SLATINA,100,14213
4077,SOVLJAK,100,14210
4078,STUBLENICA,100,14210
4079,TAKOVO,100,14210
4080,TVRDOJEVAC,100,14210
4081,TRLIĆ,100,14210
4082,TRNJACI,100,14210
4083,TULARI,100,14214
4084,UB,100,14210
4085,CRVENA JABUKA,100,14210
4086,ČUČUGE,100,14213
4087,ŠARBANE,100,14212
4091,BROD,101,16215
4092,VUS,101,16215
4093,GORNJE GARE,101,16213
4094,GRADSKA,101,16213
4095,DARKOVCE,101,16213
4096,DOBRO POLJE,101,16215
4097,JABUKOVIK,101,16213
4098,KALNA,101,16213
4099,KRIVI DEL,101,16213
4104,PRESLAP,101,16213
4106,RUPLJE,101,16215
4107,SASTAV REKA,101,16213
4108,CRNA TRAVA,101,16215
4109,ALIN POTOK,102,31310
4110,BRANEŠCI,102,31244
4111,GOLOVO,102,31208
4112,GOSTILJE,102,31209
4113,DOBROSELICA,102,31315
4114,DRENOVA,102,31207
4115,ŽELJINE,102,31207
4116,JABLANICA,102,31315
4117,KRIVA REKA,102,31312
4118,LJUBIŠ,102,31209
4119,MAČKAT,102,31312
4120,MUŠVETE,102,31310
4121,ZLATIBOR,102,31315
4122,RAKOVICA,102,31209
4123,ROŽANSTVO,102,31208
4124,RUDINE,102,31310
4125,SAINOVINA,102,31244
4126,SEMEGNJEVO,102,31315
4127,SIROGOJNO,102,31207
4128,STUBLO,102,31315
4129,TRIPKOVA,102,31244
4130,TRNAVA,102,31207
4131,ČAJETINA,102,31310
4132,ŠLJIVOVICA,102,31244
4133,ATENICA,103,32104
4136,BANJICA,103,32222
4137,BELJINA,103,32102
4138,BEČANJ,103,32213
4139,BREZOVICA,103,32234
4140,BRESNICA,103,32213
4141,VAPA,103,32223
4142,VIDOVA,103,32205
4143,VILJUŠA,103,32223
4144,VRANIĆI,103,32205
4145,VRNČANI,103,32242
4146,VUJETINCI,103,32210
4147,GORIČANI,103,32224
4148,GORNJA GOREVNICA,103,32205
4149,GORNJA TREPČA,103,32215
4150,DONJA GOREVNICA,103,32210
4151,DONJA TREPČA,103,32215
4152,ŽAOČANI,103,32224
4153,ZABLAĆE,103,32223
4154,JANČIĆI,103,32242
4155,JEŽEVICA,103,32222
4156,JEZDINA,103,32102
4157,KATRGA,103,32210
4158,KAČULICE,103,32224
4159,KONJEVIĆI,103,32103
4160,KUKIĆI,103,32224
4161,KULINOVCI,103,32102
4162,LIPNICA,103,32222
4163,LOZNICA,103,32102
4164,LJUBIĆ,103,32103
4165,MEĐUVRŠJE,103,32102
4166,MILIĆEVCI,103,32205
4167,MIOKOVCI,103,32205
4168,MOJSINJE kod Čačka,103,32210
4169,MRČAJEVCI,103,32210
4170,MRŠINCI,103,32224
4171,OVČAR BANJA,103,32242
4172,OSTRA,103,32210
4173,PAKOVRAĆE,103,32102
4174,PARMENAC,103,32102
4175,PETNICA,103,32224
4176,PRELJINA,103,32212
4177,PREMEĆA,103,32224
4178,PRIDVORICA,103,32102
4179,PRIJEVOR,103,32205
4180,PRISLONICA,103,32212
4181,RAJAC,103,32222
4182,RAKOVA,103,32212
4183,RIĐAGE,103,32102
4184,ROŠCI,103,32242
4185,SLATINA,103,32224
4186,SOKOLIĆI,103,32212
4187,STANČIĆI,103,32210
4188,TRBUŠANI,103,32205
4189,TRNAVA,103,32104
4190,ČAČAK,103,32102
4191,BELA REKA,104,15305
4192,BOGOSAVAC,104,15235
4193,BOJIĆ,104,15233
4194,BUKOR,104,15233
4195,VARNA,104,15232
4196,VOLUJAC,104,15233
4197,GORNJA VRANJSKA,104,15232
4198,GRUŠIĆ,104,15232
4199,DVORIŠTE,104,15233
4200,DESIĆ,104,15232
4201,DOBRIĆ,104,15235
4202,DRENOVAC,104,15212
4203,DUVANIŠTE,104,15305
4204,ŽABAR,104,15224
4205,ZABLAĆE,104,15232
4206,ZMINJAK,104,15352
4207,JEVREMOVAC,104,15000
4208,JELENČA,104,15000
4209,KORMAN,104,15213
4210,KRIVAJA,104,15233
4211,LIPOLIST,104,15305
4212,MAJUR,104,15353
4213,MALA VRANJSKA,104,15224
4214,MAOVI,104,15232
4215,MAČVANSKI PRIČINOVIĆ,104,15211
4216,METLIĆ,104,15233
4217,MILOŠEVAC,104,15232
4218,MIOKUS,104,15213
4219,MIŠAR,104,15000
4220,MRĐENOVAC,104,15213
4221,NAKUČANI,104,15233
4222,ORAŠAC,104,15213
4223,ORID,104,15213
4224,PETKOVICA,104,15306
4225,PETLOVAČA,104,15304
4226,POCERSKI METKOVIĆ,104,15232
4227,POCERSKI PRIČINOVIĆ,104,15000
4228,PREDVORICA,104,15213
4229,PRNJAVOR,104,15306
4230,RADOVAŠNICA,104,15235
4231,RIBARI,104,15310
4232,RUMSKA,104,15233
4233,SINOŠEVIĆ,104,15233
4234,SKRAĐANI,104,15352
4235,SLATINA,104,15232
4236,SLEPČEVIĆ,104,15354
4237,TABANOVIĆ,104,15211
4238,CEROVAC,104,15224
4239,CULJKOVIĆ,104,15235
4240,ŠABAC,104,15000
4241,ŠEVARICE,104,15212
4242,ŠTITAR,104,15354
4243,ŽIČA,185,36221
4244,BELEŠ,61,18320
4245,BELO POLJE,95,17530
4246,GORNJA KOZNICA,95,17530
4247,JOVANOVCE,101,16215
4248,ZLATANCE,101,16215
4250,ČUKA,101,16215
4251,BUKOVICA,183,32250
4252,MRAMORSKO BRDO,79,18251
4253,BEOGRAD-VOŽDOVAC,201,11010
4254,BEOGRAD-VRAČAR,31,11000
4255,BEOGRAD-ZVEZDARA,33,11050
4256,BEOGRAD-ZEMUN,34,11070
4257,BEOGRAD-NOVI BEOGRAD,37,11070
4258,BEOGRAD-PALILULA,38,11060
4259,BEOGRAD-RAKOVICA,39,11030
4260,BEOGRAD-SAVSKI VENAC,40,11000
4261,BEOGRAD-STARI GRAD,42,11000
4262,BEOGRAD-ČUKARICA,43,11030
4263,ADA,106,24430
4264,MOL,106,24435
4265,OBORNJAČA,106,24312
4266,STERIJINO,106,24430
4267,UTRINE,106,24312
4268,ALIBUNAR,107,26310
4269,BANATSKI KARLOVAC,107,26316
4270,VLADIMIROVAC,107,26315
4271,DOBRICA,107,26354
4272,ILANDŽA,107,26352
4273,JANOŠIK,107,26362
4274,LOKVE,107,26361
4275,NIKOLINCI,107,26322
4276,NOVI KOZJAK,107,26353
4277,SELEUŠ,107,26351
4278,APATIN,108,25260
4279,KUPUSINA,108,25262
4280,PRIGREVICA,108,25263
4281,SVILOJEVO,108,25265
4282,SONTA,108,25264
4283,BAČ,109,21420
4284,BAČKO NOVO SELO,109,21429
4285,BOĐANI,109,21427
4286,VAJSKA,109,21426
4287,PLAVNA,109,21428
4288,SELENČA,109,21425
4289,BAČKA PALANKA,174,21400
4290,VIZIĆ,174,21314
4291,GAJDOBRA,174,21432
4292,DESPOTOVO,174,21468
4293,KARAĐORĐEVO,174,21421
4294,MLADENOVO,174,21422
4295,NEŠTIN,174,21314
4296,NOVA GAJDOBRA,174,21431
4297,OBROVAC,174,21423
4298,PARAGE,174,21434
4299,PIVNICE,174,21469
4300,SILBAŠ,174,21433
4301,TOVARIŠEVO,174,21424
4302,ČELAREVO,174,21413
4303,BAGREMOVO,110,24312
4304,BAJŠA,110,24331
4305,BAČKA TOPOLA,110,24300
4306,BAČKI SOKOLAC,110,24341
4307,BOGARAŠ,110,24312
4308,GORNJA ROGATICA,110,24341
4309,GUNAROŠ,110,24312
4310,ZOBNATICA,110,24300
4311,KAVILO,110,24313
4312,KARAĐORĐEVO,110,24308
4313,KRIVAJA,110,24341
4314,MALI BEOGRAD,110,24309
4315,MIĆUNOVO,110,24300
4316,NOVO ORAHOVO,110,24351
4317,NJEGOŠEVO,110,24311
4318,TOMISLAVCI,110,24344
4319,PANONIJA,110,24330
4320,PAČIR,110,24342
4321,POBEDA,110,24313
4322,SVETIĆEVO,110,24313
4323,SREDNJI SALAŠ,110,24330
4324,STARA MORAVICA,110,24340
4325,BAČKI PETROVAC,111,21470
4326,GLOŽAN,111,21412
4327,KULPIN,111,21472
4328,MAGLIĆ,111,21473
4329,BANATSKA PALANKA,112,26324
4330,BANATSKA SUBOTICA,112,26346
4331,BELA CRKVA,112,26340
4332,VRAČEV GAJ,112,26340
4333,GREBENAC,112,26347
4334,DOBRIČEVO,112,26346
4335,DUPLJAJA,112,26328
4336,JASENOVO,112,26346
4337,KAJTASOVO,112,26347
4338,KALUĐEROVO,112,26340
4339,KRUŠČICA,112,26340
4340,KUSIĆ,112,26349
4341,CRVENA CRKVA,112,26323
4342,ČEŠKO SELO,112,26323
4343,BANOŠTOR,113,21312
4344,BEOČIN,113,21300
4345,GRABOVO,113,21313
4346,LUG,113,21315
4347,RAKOVAC,113,21299
4348,SVILOŠ,113,21313
4349,SUSEK,113,21313
4350,ČEREVIĆ,113,21311
4351,BAČKO GRADIŠTE,114,21217
4352,BAČKO PETROVO SELO,114,21226
4353,BEČEJ,114,21220
4354,MILEŠEVO,114,21227
4355,RADIČEVIĆ,114,21225
4356,VATIN,175,26300
4357,VELIKO SREDIŠTE,175,26334
4358,VLAJKOVAC,175,26332
4359,VOJVODINCI,175,26338
4360,VRŠAC,175,26300
4361,VRŠAČKI RITOVI,175,26364
4362,GUDURICA,175,26335
4363,ZAGAJICA,175,26344
4364,IZBIŠTE,175,26343
4365,JABLANKA,175,26300
4366,KUŠTILJ,175,26336
4367,MALI ŽAM,175,26300
4368,MALO SREDIŠTE,175,26335
4369,MARKOVAC,175,26335
4370,MESIĆ,175,26300
4371,OREŠAC,175,26345
4372,PAVLIŠ,175,26333
4373,PARTA,175,26345
4374,POTPORANJ,175,26345
4375,RITIŠEVO,175,26332
4376,SOČICA,175,26300
4377,STRAŽA,175,26345
4378,ULJMA,175,26330
4379,ŠUŠARA,175,26343
4380,GOSPOĐINCI,115,21237
4381,ĐURĐEVO,115,21239
4382,ŽABALJ,115,21230
4383,ČURUG,115,21238
4384,BANATSKI DVOR,116,23213
4385,BANATSKO VIŠNJIĆEVO,116,23231
4386,BANATSKO KARAĐORĐEVO,116,23216
4387,TORAK,116,23232
4388,ŽITIŠTE,116,23210
4389,MEĐA,116,23234
4390,NOVI ITEBEJ,116,23236
4391,RAVNI TOPOLOVAC,116,23212
4392,SRPSKI ITEBEJ,116,23233
4393,TORDA,116,23214
4394,HETIN,116,23235
4395,ČESTEREG,116,23215
4396,ARADAC,176,23207
4397,BANATSKI DESPOTOVAC,176,23242
4398,BELO BLATO,176,23205
4399,BOTOŠ,176,23243
4400,ELEMIR,176,23208
4401,EČKA,176,23203
4402,ZRENJANIN,176,23101
4403,JANKOV MOST,176,23201
4404,KLEK,176,23211
4405,KNIĆANIN,176,23265
4406,LAZAREVO,176,23241
4407,LUKINO SELO,176,23224
4408,LUKIĆEVO,176,23261
4409,MELENCI,176,23270
4410,MIHAJLOVO,176,23202
4411,ORLOVAT,176,23263
4412,PERLEZ,176,23260
4413,STAJIĆEVO,176,23204
4414,TARAŠ,176,23209
4415,TOMAŠEVAC,176,23262
4416,FARKAŽDIN,176,23264
4417,ČENTA,176,23266
4418,BEŠKA,117,22324
4419,INĐIJA,117,22320
4420,JARKOVCI,117,22321
4421,KRČEDIN,117,22325
4422,LJUKOVO,117,22321
4423,MARADIK,117,22326
4424,NOVI KARLOVCI,117,22322
4425,NOVI SLANKAMEN,117,22323
4426,SLANKAMENAČKI VINOGR,117,22325
4427,STARI SLANKAMEN,117,22323
4428,ČORTANOVCI,117,22326
4429,VELIKA REMETA,118,22328
4430,VRDNIK,118,22408
4431,GRGETEG,118,22406
4432,DOBRODOL,118,22328
4433,IRIG,118,22406
4434,JAZAK,118,22409
4435,KRUŠEDOL PRNJAVOR,118,22328
4436,KRUŠEDOL SELO,118,22328
4437,MALA REMETA,118,22409
4438,NERADIN,118,22406
4439,RIVICA,118,22406
4440,ŠATRINCI,118,22328
4441,ADORJAN,119,24425
4442,VELEBIT,119,24428
4443,DOLINE,119,24207
4444,ZIMONIĆ,119,24420
4445,KANJIŽA,119,24420
4446,MALE PIJACE,119,24414
4447,MALI PESAK,119,24417
4448,MARTONOŠ,119,24417
4449,NOVO SELO,119,24207
4450,OROM,119,24207
4451,TOTOVO SELO,119,24207
4452,TREŠNJEVAC,119,24426
4453,HORGOŠ,119,24410
4454,BANATSKA TOPOLA,177,23315
4455,BANATSKO VELIKO SELO,177,23312
4456,BAŠAID,177,23316
4457,IĐOŠ,177,23323
4458,KIKINDA,177,23300
4459,MOKRIN,177,23305
4460,NAKOVO,177,23311
4461,NOVI KOZARCI,177,23313
4462,RUSKO SELO,177,23314
4463,SAJAN,177,23324
4464,DEBELJAČA,120,26214
4465,IDVOR,120,26207
4466,KOVAČICA,120,26210
4467,PADINA,120,26215
4468,PUTNIKOVO,120,26216
4469,SAMOŠ,120,26350
4470,UZDIN,120,26216
4471,CREPAJA,120,26213
4472,BAVANIŠTE,121,26222
4473,GAJ,121,26223
4474,DELIBLATO,121,26225
4475,DUBOVAC,121,26224
4476,KOVIN,121,26220
4477,MALO BAVANIŠTE,121,26223
4478,MRAMORAK,121,26226
4479,PLOČICA,121,26229
4480,SKORENOVAC,121,26228
4481,ŠUMARAK,121,26223
4482,KRUŠČIĆ,122,25225
4483,KULA,122,25230
4484,LIPAR,122,25232
4485,NOVA CRVENKA,122,25224
4486,RUSKI KRSTUR,122,25233
4487,SIVAC,122,25223
4488,CRVENKA,122,25220
4489,LOVĆENAC,178,24322
4490,MALI IĐOŠ,178,24321
4491,FEKETIĆ,178,24323
4492,ALEKSANDROVO,123,23217
4493,VOJVODA STEPA,123,23219
4494,NOVA CRNJA,123,23218
4495,RADOJEVO,123,23221
4496,SRPSKA CRNJA,123,23220
4497,TOBA,123,23222
4498,BOČAR,124,23274
4499,KUMANE,124,23271
4500,NOVI BEČEJ,124,23272
4501,NOVO MILOŠEVO,124,23273
4502,BANATSKO ARANĐELOVO,125,23332
4503,ĐALA,125,23335
4504,SRPSKI KRSTUR,125,23334
4505,MAJDAN,125,23333
4506,NOVI KNEŽEVAC,125,23330
4507,PODLOKANJ,125,23332
4508,RABE,125,23333
4509,SIGET,125,23332
4510,FILIĆ,125,23330
4511,BEGEČ,179,21411
4512,BUDISAVA,179,21242
4513,BUKOVAC,215,21209
4514,VETERNIK,179,21203
4515,KAĆ,179,21241
4516,KISAČ,179,21211
4517,KOVILJ,179,21243
4518,LEDINCI,215,21207
4519,NOVI SAD,179,21000
4520,RUMENKA,179,21201
4521,SREMSKA KAMENICA,215,21208
4522,STEPANOVIĆEVO,179,21212
4523,FUTOG,179,21410
4524,ČENEJ,179,21233
4525,BARANDA,126,26205
4526,OPOVO,126,26204
4527,SAKULE,126,26206
4528,SEFKERIN,126,26203
4529,BAČKI BRESTOVAC,127,25242
4530,BAČKI GRAČAC,127,25252
4531,BOGOJEVO,127,25245
4532,DERONJE,127,25254
4533,KARAVUKOVO,127,25255
4534,LALIĆ,127,25234
4535,ODŽACI,127,25250
4536,RATKOVO,127,25253
4537,SRPSKI MILETIĆ,127,25244
4538,BANATSKI BRESTOVAC,128,26234
4539,BANATSKO NOVO SELO,128,26314
4540,GLOGONJ,128,26202
4541,DOLOVO,128,26227
4542,IVANOVO,128,26233
4543,JABUKA,128,26201
4544,KAČAREVO,128,26212
4545,OMOLJICA,128,26230
4546,PANČEVO,128,26101
4547,STARČEVO,128,26232
4548,AŠANJA,180,22418
4549,BRESTAČ,180,22414
4550,DEČ,180,22441
4551,DONJI TOVARNIK,180,22416
4552,KARLOVČIĆ,180,22443
4553,KUPINOVO,180,22419
4554,OBREŽ,180,22417
4555,OGAR,180,22416
4556,PEĆINCI,180,22410
4557,POPINCI,180,22428
4558,PRHOVO,180,22442
4559,SIBAČ,180,22440
4560,SREMSKI MIHALJEVCI,180,22413
4561,SUBOTIŠTE,180,22414
4562,ŠIMANOVCI,180,22310
4563,BANATSKI SOKOLAC,129,26373
4564,BARICE,129,26367
4565,VELIKA GREDA,129,26366
4566,VELIKI GAJ,129,26365
4567,DUŽINE,129,26371
4568,JERMENOVCI,129,26363
4569,KUPINIK,129,26368
4570,LAUDONOVAC,129,26364
4571,MARGITA,129,26364
4572,MARKOVIĆEVO,129,26373
4573,MILETIĆEVO,129,26373
4574,PLANDIŠTE,129,26360
4575,STARI LEC,129,26371
4576,HAJDUČICA,129,26370
4577,BUĐANOVCI,130,22421
4578,VITOJEVCI,130,22431
4579,VOGANJ,130,22400
4580,GRABOVCI,130,22423
4581,DOBRINCI,130,22412
4582,DONJI PETROVCI,130,22404
4583,ŽARKOVAC,130,22404
4584,KLENAK,130,22424
4585,KRALJEVCI,130,22411
4586,MALI RADINCI,130,22400
4587,NIKINCI,130,22422
4588,PAVLOVCI,130,22400
4589,PLATIČEVO,130,22420
4590,PUTINCI,130,22404
4591,RUMA,130,22400
4592,STEJANOVCI,130,22405
4593,HRTKOVCI,130,22427
4594,BOGARAŠ,131,24352
4595,GORNJI BREG,131,24352
4596,KEVI,131,24352
4597,SENTA,131,24400
4598,TORNJOŠ,131,24352
4599,BANATSKA DUBICA,181,23251
4600,BOKA,181,23252
4601,BUSENJE,181,23230
4602,JARKOVAC,181,23250
4603,JAŠA TOMIĆ,181,23230
4604,KONAK,181,23253
4605,KRAJIŠNIK,181,23231
4606,NEUZINA,181,23245
4607,SEČANJ,181,23240
4608,SUTJESKA,181,23244
4609,ŠURJAN,181,23254
4610,ALEKSA ŠANTIĆ,132,25212
4611,BAČKI BREG,132,25275
4612,BAČKI MONOŠTOR,132,25272
4613,BEZDAN,132,25270
4614,GAKOVO,132,25282
4615,DOROSLOVO,132,25243
4616,KLJAJIĆEVO,132,25221
4617,KOLUT,132,25274
4618,RASTINA,132,25283
4619,RIĐICA,132,25280
4620,SVETOZAR MILETIĆ,132,25211
4621,SOMBOR,132,25101
4622,STANIŠIĆ,132,25284
4623,STAPAR,132,25240
4624,TELEČKA,132,25221
4625,ČONOPLJA,132,25210
4626,NADALJ,133,21216
4627,SRBOBRAN,133,21480
4628,TURIJA,133,21215
4629,BEŠENOVAČKI PRNJAVOR,134,22212
4630,BEŠENOVO,134,22212
4631,BOSUT,134,22217
4632,VELIKI RADINCI,134,22211
4633,GRGUREVCI,134,22213
4634,DIVOŠ,134,22232
4635,ZASAVICA I,134,22201
4636,ZASAVICA II,134,22201
4637,JARAK,134,22426
4638,KUZMIN,134,22223
4639,LAĆARAK,134,22221
4640,LEŽIMIR,134,22207
4641,MANĐELOS,134,22208
4642,MARTINCI,134,22221
4643,MAČVANSKA MITROVICA,134,22000
4644,NOĆAJ,134,22203
4645,RAVNJE,134,22205
4646,RADENKOVIĆ,134,22203
4647,SALAŠ NOĆAJSKI,134,22000
4648,SREMSKA MITROVICA,134,22000
4649,SREMSKA RAČA,134,22247
4650,STARA BINGULA,134,22232
4651,ČALMA,134,22231
4652,ŠAŠINCI,134,22425
4653,ŠIŠATOVAC,134,22207
4654,ŠULJAM,134,22211
4655,SREMSKI KARLOVCI,135,21205
4656,BELEGIŠ,136,22306
4657,VOJKA,136,22313
4658,GOLUBINCI,136,22308
4659,KRNJEŠEVCI,136,22314
4660,NOVA PAZOVA,136,22330
4661,NOVI BANOVCI,136,22303
4662,STARA PAZOVA,136,22300
4663,STARI BANOVCI,136,22303
4664,SURDUK,136,22307
4665,BAJMOK,137,24210
4666,BAČKI VINOGRADI,137,24415
4667,BAČKO DUŠANOVO,137,24220
4668,BIKOVO,137,24106
4669,VIŠNJEVAC,137,24222
4670,GORNJI TAVANKUT,137,24214
4671,DONJI TAVANKUT,137,24214
4672,ĐURĐIN,137,24213
4673,KELEBIJA,137,24104
4674,LJUTOVO,137,24107
4675,MALA BOSNA,137,24217
4676,MIŠIĆEVO,137,24211
4677,NOVI ŽEDNIK,137,24223
4678,PALIĆ,137,24413
4679,STARI ŽEDNIK,137,24224
4680,SUBOTICA,137,24000
4681,HAJDUKOVO,137,24413
4682,ČANTAVIR,137,24220
4683,ŠUPLJAK,137,24413
4684,BAČKI JARAK,138,21234
4685,SIRIG,138,21214
4686,TEMERIN,138,21235
4687,VILOVO,139,21246
4688,GARDINOVCI,139,21247
4689,LOK,139,21248
4690,MOŠORIN,139,21245
4691,TITEL,139,21240
4692,ŠAJKAŠ,139,21244
4693,BAČKO DOBRO POLJE,140,21465
4694,ZMAJEVO,140,21213
4695,KUCURA,140,21466
4696,RAVNO SELO,140,21471
4697,SAVINO SELO,140,21467
4698,VRBAS,140,21460
4699,BANATSKI MONOŠTOR,141,23328
4700,VRBICA,141,23329
4701,JAZOVO,141,23327
4702,OSTOJIĆEVO,141,23326
4703,PADEJ,141,23325
4704,SANAD,141,23331
4705,CRNA BARA,141,23328
4706,ČOKA,141,23320
4707,ADAŠEVCI,142,22244
4708,BATROVCI,142,22251
4709,BAČINCI,142,22225
4710,BERKASOVO,142,22242
4711,BIKIĆ DO,142,22254
4712,BINGULA,142,22253
4713,VAŠICA,142,22241
4714,VIŠNJIĆEVO,142,22246
4715,GIBARAC,142,22258
4716,ERDEVIK,142,22230
4717,ILINCI,142,22250
4718,JAMENA,142,22248
4719,KUKUJEVCI,142,22224
4720,LJUBA,142,22255
4721,MOLOVIN,142,22256
4722,MOROVIĆ,142,22245
4723,PRIVINA GLAVA,142,22257
4724,SOT,142,22243
4725,ŠID,142,22240
4726,KOSANČIĆ,140,21467
4727,OBORNJAČA,110,24312
6189,NIŠKA BANJA,214,18205
6190,PETROVARADIN,215,21132
6208,VODNA,206,35215
6218,ZABELA,85,12000
6220,LJUBIČEVO,85,12000
6224,DOBRIČEVO,199,35230
6227,KULIČ,212,11300
6228,NAKRIVANJSKI ČIFLUK,187,16203
6241,MLAKOVAC,60,32300
6251,PREDANČA,205,16212
6260,GAMZIGRADSKA BANJA,65,19228
6270,NIŠ-MEDIANA,218,18106
6271,NIŠ-PALILULA,224,18106
6272,NIŠ-PANTELEJ,222,18106
6273,NIŠ-CRVENI KRST,223,18106
6274,KRAGUJEVAC-AERODROM,226,34110
6275,KRAGUJEVAC-PIVARA,227,34000
6276,KRAGUJEVAC-CENTAR,228,34000
6291,DEVETI MAJ,224,18250
6294,BALUGA (LJUBIĆSKA),103,32212
6295,BALUGA (TRNAVSKA),103,32223
